id,address,city,region,postcode,lon,lng,descript_1,length
1,"69 Southampton Row, London, WC1B 4ET, Greater London",London,Greater London,WC1B 4ET,-0.12275,51.52021,A Road,113.66
2,"237 Shaftesbury Avenue, London, WC2H 8EH, Greater London",London,Greater London,WC2H 8EH,-0.12664,51.51678,A Road,30.03
3,"Unit 3, 150 Southampton Row, London, WC1B 5AL, Greater London",London,Greater London,WC1B 5AL,-0.1237,51.52128,A Road,82.5
4,"231 High Holborn, London, WC1V 7EG, Greater London",London,Greater London,WC1V 7EG,-0.11992,51.51757,A Road,72.79
8,"Holborn Bars, 3 Holborn, London, EC1N 2LL, Greater London",London,Greater London,EC1N 2LL,-0.11111,51.51806,A Road,45.86
9,"4 Gray's Inn Road, London, WC1X 8HG, Greater London",London,Greater London,WC1X 8HG,-0.11122,51.51825,A Road,45.86
11,"76 New Oxford Street, London, WC1A 1EU, Greater London",London,Greater London,WC1A 1EU,-0.12749,51.51684,A Road,47.84
12,"18 Hammersmith Broadway, London, W6 7AB, Greater London",London,Greater London,W6 7AB,-0.22403,51.4934,A Road,66.96
13,"Holborn Underground Station, 88-94 Kingsway, London, WC2B 6AA, Greater London",London,Greater London,WC2B 6AA,-0.12013,51.51738,A Road,15.68
14,"Unit 2, 22-26 Hammersmith Broadway, London, W6 7AB, Greater London",London,Greater London,W6 7AB,-0.22425,51.49333,A Road,66.96
22,"92 Southampton Row, London, WC1B 4BH, Greater London",London,Greater London,WC1B 4BH,-0.12218,51.52002,A Road,65.78
30,"28 Junction Road, London, N19 5RF, Greater London",London,Greater London,N19 5RF,-0.13505,51.56449,A Road,79.69
47,"4 Manor Walk, Market Harborough, LE16 9BP, East Midlands",Market Harborough,East Midlands,LE16 9BP,-0.92211,52.47748,A Road,116.79
54,"12 The Square, Market Harborough, LE16 7PA, East Midlands",Market Harborough,East Midlands,LE16 7PA,-0.92009,52.47776,A Road,70.03
67,"2-6 Sicilian Avenue, London, WC1A 2QH, Greater London",London,Greater London,WC1A 2QH,-0.12102,51.51843,A Road,104.92
83,"Central St. Giles, 1a St. Giles High Street, London, WC2H 8AG, Greater London",London,Greater London,WC2H 8AG,-0.12672,51.51587,A Road,50.7
86,"Central St. Giles, 5 St. Giles High Street, London, WC2H 8AG, Greater London",London,Greater London,WC2H 8AG,-0.12785,51.51564,A Road,71.27
97,"33-39 Tooting High Street, London, SW17 0SP, Greater London",London,Greater London,SW17 0SP,-0.16697,51.4288,A Road,117.6
100,"231 High Holborn, London, WC1V 7EG, Greater London",London,Greater London,WC1V 7EG,-0.11992,51.51757,A Road,72.79
101,"Holborn Underground Station, 88-94 Kingsway, London, WC2B 6AA, Greater London",London,Greater London,WC2B 6AA,-0.12013,51.51738,A Road,15.68
102,"231 High Holborn, London, WC1V 7EG, Greater London",London,Greater London,WC1V 7EG,-0.11992,51.51757,A Road,72.79
105,"Unit 2, 22-26 Hammersmith Broadway, London, W6 7AB, Greater London",London,Greater London,W6 7AB,-0.22425,51.49333,A Road,66.96
106,"4 Oxford Street, London, W1D 1AL, Greater London",London,Greater London,W1D 1AL,-0.13053,51.51646,A Road,19.19
110,"262 Oxford Street, London, W1C 1DE, Greater London",London,Greater London,W1C 1DE,-0.14351,51.51515,A Road,113.2
112,"Unit 1-2, Tigris House, 256 Edgware Road, London, W2 1DS, Greater London",London,Greater London,W2 1DS,-0.16888,51.51926,A Road,5.83
115,"45-47 Edgware Road, London, W2 2EG, Greater London",London,Greater London,W2 2EG,-0.16315,51.51506,A Road,49.55
116,"36-40 Edgware Road, London, W2 2EH, Greater London",London,Greater London,W2 2EH,-0.16169,51.5144,A Road,91.18
117,"21 Edgware Road, London, W2 2JE, Greater London",London,Greater London,W2 2JE,-0.16221,51.51444,A Road,91.18
120,"353 Oxford Street, London, W1C 2JG, Greater London",London,Greater London,W1C 2JG,-0.14795,51.51444,A Road,157.53
124,"53-54 Tottenham Court Road, London, W1T 2EQ, Greater London",London,Greater London,W1T 2EQ,-0.13347,51.5196,A Road,113.99
129,"167 Piccadilly, London, W1J 9EG, Greater London",London,Greater London,W1J 9EG,-0.13996,51.50796,A Road,50.03
131,"Unit 4, The Qube, 101-106 Tottenham Court Road, London, W1T 4EZ, Greater London",London,Greater London,W1T 4EZ,-0.13664,51.5228,A Road,90.21
132,"313 Regent Street, London, W1B 2HP, Greater London",London,Greater London,W1B 2HP,-0.14285,51.51703,A Road,32.43
133,"460 Strand, London, WC2R 0RG, Greater London",London,Greater London,WC2R 0RG,-0.12624,51.50818,A Road,113.91
138,"13 Islington High Street, London, N1 9LQ, Greater London",London,Greater London,N1 9LQ,-0.10632,51.53239,A Road,67.93
139,"4-5 Upper Street, London, N1 0PQ, Greater London",London,Greater London,N1 0PQ,-0.10582,51.53374,A Road,159.2
142,"146 Marylebone Road, London, NW1 5PH, Greater London",London,Greater London,NW1 5PH,-0.15845,51.52202,A Road,149.17
144,"225 Edgware Road, London, W2 1JU, Greater London",London,Greater London,W2 1JU,-0.16949,51.51938,A Road,67.89
145,"258 Edgware Road, London, W2 1DU, Greater London",London,Greater London,W2 1DU,-0.16917,51.51949,A Road,85.25
146,"95 Edgware Road, London, W2 2HX, Greater London",London,Greater London,W2 2HX,-0.16447,51.51611,A Road,144.99
148,"6a King Street, London, W6 0QA, Greater London",London,Greater London,W6 0QA,-0.22552,51.49301,A Road,255.74
152,"147 Victoria Street, London, SW1E 5NH, Greater London",London,Greater London,SW1E 5NH,-0.13991,51.4968,A Road,66.09
153,"97 Buckingham Palace Road, London, SW1W 0RP, Greater London",London,Greater London,SW1W 0RP,-0.14484,51.49643,A Road,98.63
155,"69 King's Road, London, SW3 4NT, Greater London",London,Greater London,SW3 4NT,-0.16383,51.48932,A Road,43.41
157,"100 King Street, London, W6 0QW, Greater London",London,Greater London,W6 0QW,-0.23038,51.49264,A Road,33.01
158,"231-245 Chiswick High Road, London, W4 4PU, Greater London",London,Greater London,W4 4PU,-0.26061,51.49239,A Road,60.79
161,"80 Kensington High Street, London, W8 4SG, Greater London",London,Greater London,W8 4SG,-0.19136,51.50181,A Road,38.43
162,"23-24 St. Augustines Parade, Bristol, BS1 4UL, South West",Bristol,South West,BS1 4UL,-2.59791,51.45367,A Road,90.54
163,"57 Queens Road, Bristol, BS8 1QL, South West",Bristol,South West,BS8 1QL,-2.60655,51.45646,A Road,101.4
166,"120 Princes Street, Edinburgh, EH2 4AD, Scotland",Edinburgh,Scotland,EH2 4AD,-3.20355,55.95093,A Road,410.94
173,"2 London Bridge Walk, London, SE1 2SX, Greater London",London,Greater London,SE1 2SX,-0.08767,51.50613,A Road,118.41
174,"186 Tooley Street, London, SE1 2TZ, Greater London",London,Greater London,SE1 2TZ,-0.0794,51.50321,A Road,34.88
175,"90 Tooley Street, London, SE1 2TH, Greater London",London,Greater London,SE1 2TH,-0.08301,51.50446,A Road,36.53
212,"93 Charing Cross Road, London, WC2H 0DP, Greater London",London,Greater London,WC2H 0DP,-0.12932,51.51326,A Road,21.98
231,"25 North Bridge, Edinburgh, EH1 1SB, Scotland",Edinburgh,Scotland,EH1 1SB,-3.18753,55.95031,A Road,51.19
232,"46 North Bridge, Edinburgh, EH1 1QN, Scotland",Edinburgh,Scotland,EH1 1QN,-3.18762,55.95029,A Road,51.19
246,"Fishergate Point, Lower Parliament Street, Nottingham, NG1 3DB, East Midlands",Nottingham,East Midlands,NG1 3DB,-1.13911,52.95063,A Road,50.94
256,"43 Shirley High Street, Southampton, SO15 3NN, South East",Southampton,South East,SO15 3NN,-1.43281,50.92192,A Road,112.16
277,"92 Foregate Street, Chester, CH1 1HB, North West",Chester,North West,CH1 1HB,-2.88422,53.19154,A Road,135.62
282,"522 Oxford Street, London, W1C 1LL, Greater London",London,Greater London,W1C 1LL,-0.15714,51.5137,A Road,81.08
283,"83 Oxford Street, Manchester, M1 6EG, North West",Manchester,North West,M1 6EG,-2.24163,53.47534,A Road,122.3
285,"87 Deansgate, Manchester, M3 2BW, North West",Manchester,North West,M3 2BW,-2.24701,53.48208,A Road,76.28
304,"104-106 Oxford Street, London, W1D 1LP, Greater London",London,Greater London,W1D 1LP,-0.13536,51.51598,A Road,88.03
308,"160 Kentish Town Road, London, NW5 2AG, Greater London",London,Greater London,NW5 2AG,-0.14155,51.54686,A Road,90.09
310,"166 Kentish Town Road, London, NW5 2AG, Greater London",London,Greater London,NW5 2AG,-0.14151,51.54699,A Road,90.09
312,"29 Islington High Street, London, N1 9LH, Greater London",London,Greater London,N1 9LH,-0.1063,51.53292,A Road,26.57
314,"89 Camden High Street, London, NW1 7JL, Greater London",London,Greater London,NW1 7JL,-0.14077,51.53664,A Road,105.98
317,"12 Bloomsbury Street, London, WC1B 3QA, Greater London",London,Greater London,WC1B 3QA,-0.12722,51.51743,A Road,58.68
328,"432 King's Road, London, SW10 0LR, Greater London",London,Greater London,SW10 0LR,-0.17764,51.48305,A Road,72.99
333,"87 King Street, London, W6 9HW, Greater London",London,Greater London,W6 9HW,-0.22861,51.49247,A Road,48.51
334,"87 Princes Street, Edinburgh, EH2 2ER, Scotland",Edinburgh,Scotland,EH2 2ER,-3.19814,55.95197,A Road,169.3
335,"120-122 Nicolson Street, Edinburgh, EH8 9EJ, Scotland",Edinburgh,Scotland,EH8 9EJ,-3.18355,55.94413,A Road,148.47
336,"104 Kensington High Street, London, W8 4SG, Greater London",London,Greater London,W8 4SG,-0.19214,51.50153,A Road,43.53
337,"34 New Broadway, London, W5 2XA, Greater London",London,Greater London,W5 2XA,-0.30674,51.51298,A Road,74.81
338,"116 Nicolson Street, Edinburgh, EH8 9EJ, Scotland",Edinburgh,Scotland,EH8 9EJ,-3.18372,55.94436,A Road,148.47
353,"37-39 Fore Street, Taunton, TA1 1HR, South West",Taunton,South West,TA1 1HR,-3.10243,51.01471,A Road,109.63
361,"131 Union Street, Aberdeen, AB11 6BH, Scotland",Aberdeen,Scotland,AB11 6BH,-2.0999,57.14615,A Road,59.03
379,"12 High Street, Oxford, OX1 4DB, South East",Oxford,South East,OX1 4DB,-1.25685,51.75219,A Road,125.94
381,"6-7 High Street, Oxford, OX1 4AD, South East",Oxford,South East,OX1 4AD,-1.2571,51.75214,A Road,125.94
387,"West Street, Brighton, BN1 2RE, South East",Brighton,South East,BN1 2RE,-0.14473,50.8211,A Road,76.26
390,"1-3 London Road, Brighton, BN1 4JA, South East",Brighton,South East,BN1 4JA,-0.1359,50.82958,A Road,18.58
391,"13 London Road, Brighton, BN1 4JA, South East",Brighton,South East,BN1 4JA,-0.13614,50.83031,A Road,69.12
396,"76-78 Shirley High Street, Southampton, SO15 3NE, South East",Southampton,South East,SO15 3NE,-1.43386,50.92246,A Road,66.84
397,"Oakhill House, 2-6 Romsey Road, Southampton, SO16 4BZ, South East",Southampton,South East,SO16 4BZ,-1.43573,50.92389,A Road,80.56
403,"1 Queens Road, Bristol, BS8 1QE, South West",Bristol,South West,BS8 1QE,-2.60455,51.45565,A Road,13.18
412,"1 North Street, Taunton, TA1 1LH, South West",Taunton,South West,TA1 1LH,-3.10309,51.01527,A Road,133.35
420,"98a Whiteladies Road, Bristol, BS8 2QY, South West",Bristol,South West,BS8 2QY,-2.61256,51.46733,A Road,18.48
428,"5 Coventry Road, Market Harborough, LE16 9BX, East Midlands",Market Harborough,East Midlands,LE16 9BX,-0.92115,52.4778,A Road,70.03
429,"126 King's Road, London, SW3 4TR, Greater London",London,Greater London,SW3 4TR,-0.16318,51.48991,A Road,81.33
442,"123 High Street, Oxford, OX1 4DF, South East",Oxford,South East,OX1 4DF,-1.25593,51.75217,A Road,76.9
444,"86 Park Street, Bristol, BS1 5LA, South West",Bristol,South West,BS1 5LA,-2.60397,51.45555,A Road,67
457,"178-180 Regent Street, London, W1B 5TW, Greater London",London,Greater London,W1B 5TW,-0.13977,51.51243,A Road,137.88
459,"35-38 Sloane Gardens, London, SW1W 8DL, Greater London",London,Greater London,SW1W 8DL,-0.15687,51.49237,A Road,18.15
460,"31 Brompton Road, London, SW3 1ED, Greater London",London,Greater London,SW3 1ED,-0.16127,51.50126,A Road,74.88
478,"Holborn Underground Station, Kingsway, London, WC2B 6AA, Greater London",London,Greater London,WC2B 6AA,-0.12034,51.51759,A Road,22.94
496,"316-318 Regent Street, London, W1B 3AY, Greater London",London,Greater London,W1B 3AY,-0.14251,51.51688,A Road,32.43
497,"201 Oxford Street, London, W1D 2LE, Greater London",London,Greater London,W1D 2LE,-0.13955,51.5154,A Road,138.49
500,"74 High Road, London, N22 6HL, Greater London",London,Greater London,N22 6HL,-0.10616,51.59283,A Road,133.4
501,"Unit 1, The Mall Wood Green, High Road, London, N22 6HE, Greater London",London,Greater London,N22 6HE,-0.10717,51.59359,A Road,133.4
512,"200 Deansgate, Manchester, M3 3NN, North West",Manchester,North West,M3 3NN,-2.24968,53.47841,A Road,98.35
520,"159 Union Street, Aberdeen, AB11 6BB, Scotland",Aberdeen,Scotland,AB11 6BB,-2.10194,57.14559,A Road,62.17
525,"34-38 Bond Street, Bristol, BS1 3LX, South West",Bristol,South West,BS1 3LX,-2.58852,51.45917,A Road,161.93
535,"34 New Oxford Street, London, WC1A 1AP, Greater London",London,Greater London,WC1A 1AP,-0.12522,51.51728,A Road,59.82
541,"Unit 3, The Corner House, South Sherwood Street, Nottingham, NG1 4DB, East Midlands",Nottingham,East Midlands,NG1 4DB,-1.15085,52.95569,A Road,67.83
546,"10-11 Holborn, London, EC1N 2LL, Greater London",London,Greater London,EC1N 2LL,-0.11052,51.51788,A Road,21.38
571,"227 Finchley Road, London, NW3 6LP, Greater London",London,Greater London,NW3 6LP,-0.17983,51.5471,A Road,16.72
572,"1-5 Boroughgate, Otley, LS21 3AG, Yorkshire and the Humber",Otley,Yorkshire and the Humber,LS21 3AG,-1.69333,53.90562,A Road,77.03
573,"77 Kingsway, London, WC2B 6SR, Greater London",London,Greater London,WC2B 6SR,-0.11949,51.516,A Road,93.11
574,"29-30 High Holborn, London, WC1V 6AZ, Greater London",London,Greater London,WC1V 6AZ,-0.1132,51.51835,A Road,61.23
607,"202 Union Street, Aberdeen, AB10 1QS, Scotland",Aberdeen,Scotland,AB10 1QS,-2.10509,57.14491,A Road,57.32
615,"40 High Street North, Dunstable, LU6 1LA, East Of England",Dunstable,East Of England,LU6 1LA,-0.52238,51.88728,A Road,220.95
625,"73-77 Euston Road, London, NW1 2QS, Greater London",London,Greater London,NW1 2QS,-0.1262,51.52891,A Road,34.82
626,"137 Gloucester Place, London, NW1 5AL, Greater London",London,Greater London,NW1 5AL,-0.1601,51.52237,A Road,52.5
627,"108a Tottenham Court Road, London, W1T 5AA, Greater London",London,Greater London,W1T 5AA,-0.13681,51.52301,A Road,40.5
629,"88 Gracechurch Street, London, EC3V 0DN, Greater London",London,Greater London,EC3V 0DN,-0.08435,51.51287,A Road,35.69
630,"66 Cranbrook Road, Ilford, IG1 4NH, Greater London",Ilford,Greater London,IG1 4NH,0.06971,51.56058,A Road,150.45
636,"121 Union Street, Aberdeen, AB11 6BH, Scotland",Aberdeen,Scotland,AB11 6BH,-2.09929,57.14624,A Road,55.9
639,"163 High Street, London, SE20 7DS, Greater London",London,Greater London,SE20 7DS,-0.05191,51.41444,A Road,174.23
640,"84 High Street, London, SE20 7HB, Greater London",London,Greater London,SE20 7HB,-0.05457,51.41595,A Road,92.3
641,"132 High Street, London, SE20 7EU, Greater London",London,Greater London,SE20 7EU,-0.05226,51.41446,A Road,174.23
642,"45 Green Lane, London, SE20 7JX, Greater London",London,Greater London,SE20 7JX,-0.05119,51.41402,A Road,77.24
643,"Plaza House, 199 Camden High Street, London, NW1 7BT, Greater London",London,Greater London,NW1 7BT,-0.14307,51.53927,A Road,103.45
648,"19-20 London Road, Brighton, BN1 4JB, South East",Brighton,South East,BN1 4JB,-0.13625,50.83074,A Road,33.02
671,"45 Monument Street, London, EC3R 8BU, Greater London",London,Greater London,EC3R 8BU,-0.08408,51.5095,A Road,363.65
681,"1 Blackfriars Bridge, London, SE1 9UD, Greater London",London,Greater London,SE1 9UD,-0.10435,51.50857,A Road,321.61
683,"91-92 Strand, London, WC2R 0DW, Greater London",London,Greater London,WC2R 0DW,-0.12128,51.51039,A Road,126.05
686,"291 Greenwich High Road, London, SE10 8NA, Greater London",London,Greater London,SE10 8NA,-0.00965,51.48005,A Road,129.25
696,"1 Camden High Street, London, NW1 7JE, Greater London",London,Greater London,NW1 7JE,-0.13924,51.53455,A Road,16.28
700,"245-247 Baker Street, London, NW1 6XE, Greater London",London,Greater London,NW1 6XE,-0.15854,51.52404,A Road,19.99
710,"275 Regent Street, London, W1B 2HB, Greater London",London,Greater London,W1B 2HB,-0.14242,51.51599,A Road,72.46
713,"27 Tottenham Court Road, London, W1T 1BJ, Greater London",London,Greater London,W1T 1BJ,-0.13239,51.51857,A Road,28.84
734,"Unit 1, 109-115 Blackfriars Road, London, SE1 8HW, Greater London",London,Greater London,SE1 8HW,-0.10466,51.50119,A Road,15.67
741,"289-293 Regent Street, London, W1B 2HJ, Greater London",London,Greater London,W1B 2HJ,-0.1427,51.51663,A Road,18.74
750,"Unit 2, 284-302 Waterloo Road, London, SE1 8RQ, Greater London",London,Greater London,SE1 8RQ,-0.10603,51.49885,A Road,20.69
755,"1 Wellington Terrace, London, W2 4LW, Greater London",London,Greater London,W2 4LW,-0.19227,51.50993,A Road,27.53
759,"55 Brompton Road, London, SW3 1DP, Greater London",London,Greater London,SW3 1DP,-0.16197,51.50079,A Road,39.53
764,"106-107 Houndsditch, London, EC3A 7BD, Greater London",London,Greater London,EC3A 7BD,-0.07939,51.51586,A Road,33.24
765,"13-14 Byward Street, London, EC3R 5BA, Greater London",London,Greater London,EC3R 5BA,-0.07926,51.50972,A Road,62.55
769,"174 Queen Victoria Street, London, EC4V 4EG, Greater London",London,Greater London,EC4V 4EG,-0.10376,51.51208,A Road,19.5
778,"248 Tottenham Court Road, London, W1T 7QZ, Greater London",London,Greater London,W1T 7QZ,-0.13154,51.51794,A Road,89.42
780,"38-40 Widmore Road, Bromley, BR1 1RY, Greater London",Bromley,Greater London,BR1 1RY,0.01857,51.40622,A Road,12.2
784,"Trinity Square, 37 Milton Street, Nottingham, NG1 4AF, East Midlands",Nottingham,East Midlands,NG1 4AF,-1.14854,52.95687,A Road,21.71
787,"78 High Street, London, SE20 7HB, Greater London",London,Greater London,SE20 7HB,-0.05478,51.41603,A Road,92.3
788,"139 Westminster Bridge Road, London, SE1 7HR, Greater London",London,Greater London,SE1 7HR,-0.11415,51.49954,A Road,94.23
791,"73-76 Strand, London, WC2R 0DE, Greater London",London,Greater London,WC2R 0DE,-0.12239,51.50996,A Road,126.05
792,"2-4 Southwark Street, London, SE1 1TQ, Greater London",London,Greater London,SE1 1TQ,-0.08958,51.5052,A Road,24.87
793,"Unit 21b, Kings Mall Shopping Centre, Lyric Square, London, W6 0QL, Greater London",London,Greater London,W6 0QL,-0.22594,51.49301,A Road,255.74
794,"145-155 King Street, London, W6 9JT, Greater London",London,Greater London,W6 9JT,-0.23158,51.49252,A Road,15.03
798,"244 Shepherds Bush Road, London, W6 7NN, Greater London",London,Greater London,W6 7NN,-0.22409,51.49389,A Road,301.27
799,"34 Kennington Road, London, SE1 7BL, Greater London",London,Greater London,SE1 7BL,-0.11209,51.49748,A Road,135.85
802,"171-173 Praed Street, London, W2 1RH, Greater London",London,Greater London,W2 1RH,-0.17536,51.51565,A Road,130.59
813,"1 Melville Place, Edinburgh, EH3 7PR, Scotland",Edinburgh,Scotland,EH3 7PR,-3.21078,55.95125,A Road,76.47
814,"26 Queensferry Street, Edinburgh, EH2 4QS, Scotland",Edinburgh,Scotland,EH2 4QS,-3.21003,55.95107,A Road,76.47
815,"23 Shandwick Place, Edinburgh, EH2 4RG, Scotland",Edinburgh,Scotland,EH2 4RG,-3.20862,55.95,A Road,36.33
816,"52 Shandwick Place, Edinburgh, EH2 4RT, Scotland",Edinburgh,Scotland,EH2 4RT,-3.21003,55.94937,A Road,153.24
832,"168-172 Sussex Gardens, London, W2 1TP, Greater London",London,Greater London,W2 1TP,-0.17381,51.51473,A Road,38.21
836,"1 Bruton Way, Gloucester, GL1 1DT, South West",Gloucester,South West,GL1 1DT,-2.2388,51.86174,A Road,90.62
838,"The Printworks, 2b Withy Grove, Manchester, M4 2BS, North West",Manchester,North West,M4 2BS,-2.24183,53.48524,A Road,76.42
850,"27-29 Upper Parliament Street, Nottingham, NG1 2AP, East Midlands",Nottingham,East Midlands,NG1 2AP,-1.14932,52.95503,A Road,102.82
851,"Burleigh House, 355-359 Strand, London, WC2R 0HS, Greater London",London,Greater London,WC2R 0HS,-0.11996,51.51116,A Road,106.01
852,"25 Cockspur Street, London, SW1Y 5BN, Greater London",London,Greater London,SW1Y 5BN,-0.12982,51.50748,A Road,120.97
853,"267 Tottenham Court Road, London, W1T 7RQ, Greater London",London,Greater London,W1T 7RQ,-0.13037,51.51674,A Road,79.56
855,"3-4 Northumberland Avenue, London, WC2N 5BY, Greater London",London,Greater London,WC2N 5BY,-0.12682,51.50717,A Road,93.96
857,"7 Whitehall, London, SW1A 2DD, Greater London",London,Greater London,SW1A 2DD,-0.12734,51.50703,A Road,35.07
869,"Grosvenor Shopping Centre, Pepper Street, Chester, CH1 1DF, North West",Chester,North West,CH1 1DF,-2.8897,53.18862,A Road,34.12
872,"78 High Street, London, SE20 7HB, Greater London",London,Greater London,SE20 7HB,-0.05478,51.41603,A Road,92.3
873,"West One Shopping Centre, 375-381 Oxford Street, London, W1C 2JS, Greater London",London,Greater London,W1C 2JS,-0.1492,51.51431,A Road,76.48
879,"451-453 Brixton Road, London, SW9 8HH, Greater London",London,Greater London,SW9 8HH,-0.11509,51.46205,A Road,115.85
880,"121-122 Upper Street, London, N1 1QP, Greater London",London,Greater London,N1 1QP,-0.10244,51.53868,A Road,203.66
889,"2a Church Street, Lutterworth, LE17 4AW, East Midlands",Lutterworth,East Midlands,LE17 4AW,-1.20001,52.45558,A Road,14.62
895,"54-60 Princes Street, Edinburgh, EH2 2DQ, Scotland",Edinburgh,Scotland,EH2 2DQ,-3.19477,55.95238,A Road,203.41
905,"53 Tooting High Street, London, SW17 0SP, Greater London",London,Greater London,SW17 0SP,-0.16744,51.42839,A Road,117.6
909,"43-45 Queen Street, Market Rasen, LN8 3EN, East Midlands",Market Rasen,East Midlands,LN8 3EN,-0.33471,53.38731,A Road,137.97
910,"2 Queen Street, Market Rasen, LN8 3EH, East Midlands",Market Rasen,East Midlands,LN8 3EH,-0.33725,53.3875,A Road,78.27
921,"313 Holburn Street, Aberdeen, AB10 7FP, Scotland",Aberdeen,Scotland,AB10 7FP,-2.11498,57.13538,A Road,136.68
928,"45 St. Machar Drive, Aberdeen, AB24 3SE, Scotland",Aberdeen,Scotland,AB24 3SE,-2.09721,57.16697,A Road,39.8
943,"80-81 Princes Street, Edinburgh, EH2 2ER, Scotland",Edinburgh,Scotland,EH2 2ER,-3.19707,55.95202,A Road,25.8
952,"111-113 High Road, London, N22 6BB, Greater London",London,Greater London,N22 6BB,-0.10707,51.59321,A Road,133.4
953,"203 Regent Street, London, W1B 4NB, Greater London",London,Greater London,W1B 4NB,-0.14076,51.51317,A Road,66.54
954,"260 Oxford Street, London, W1C 1DN, Greater London",London,Greater London,W1C 1DN,-0.14342,51.51515,A Road,113.2
955,"476 Oxford Street, London, W1C 1LD, Greater London",London,Greater London,W1C 1LD,-0.15473,51.51391,A Road,151.3
957,"98 Kensington High Street, London, W8 4SG, Greater London",London,Greater London,W8 4SG,-0.19247,51.50136,A Road,43.53
983,"435 Strand, London, WC2R 0QN, Greater London",London,Greater London,WC2R 0QN,-0.12442,51.50925,A Road,172.41
984,"15 High Street, Oxford, OX1 4DB, South East",Oxford,South East,OX1 4DB,-1.25627,51.7522,A Road,125.94
986,"52 George Street, Richmond Upon Thames, TW9 1HJ, Greater London",Richmond Upon Thames,Greater London,TW9 1HJ,-0.30456,51.46079,A Road,155.3
989,"134 Kilburn High Road, London, NW6 4JD, Greater London",London,Greater London,NW6 4JD,-0.1956,51.54,A Road,28.16
990,"12 King Street, Twickenham, TW1 3SN, Greater London",Twickenham,Greater London,TW1 3SN,-0.32843,51.44643,A Road,24.69
992,"67 Deansgate, Bolton, BL1 1HQ, North West",Bolton,North West,BL1 1HQ,-2.43024,53.5796,A Road,34.27
994,"99 High Street, Beckenham, BR3 1AG, Greater London",Beckenham,Greater London,BR3 1AG,-0.02736,51.40747,A Road,174.98
995,"172 Bishopsgate, London, EC2M 4NQ, Greater London",London,Greater London,EC2M 4NQ,-0.08028,51.51758,A Road,43.45
996,"3 Golders Green Road, London, NW11 8DY, Greater London",London,Greater London,NW11 8DY,-0.19555,51.57181,A Road,45.84
1001,"27-29 Euston Road, London, NW1 2SD, Greater London",London,Greater London,NW1 2SD,-0.12405,51.52981,A Road,32.73
1005,"1a Tottenham Court Road, London, W1T 1BA, Greater London",London,Greater London,W1T 1BA,-0.13057,51.5166,A Road,79.56
1007,"33-35 London Road, Twickenham, TW1 3SZ, Greater London",Twickenham,Greater London,TW1 3SZ,-0.32885,51.4477,A Road,163.15
1008,"1-3 The Broadway, London, SW19 1PS, Greater London",London,Greater London,SW19 1PS,-0.20584,51.42065,A Road,57.39
1012,"47 High Street, Beckenham, BR3 1AW, Greater London",Beckenham,Greater London,BR3 1AW,-0.02505,51.40842,A Road,127.91
1013,"102-104 High Street, Beckenham, BR3 1EB, Greater London",Beckenham,Greater London,BR3 1EB,-0.02549,51.4078,A Road,96.82
1014,"20 High Street, Beckenham, BR3 1AY, Greater London",Beckenham,Greater London,BR3 1AY,-0.02511,51.41009,A Road,75.51
1015,"272 High Street, Beckenham, BR3 1DZ, Greater London",Beckenham,Greater London,BR3 1DZ,-0.03079,51.40679,A Road,90
1016,"134 High Street, London, SE20 7EU, Greater London",London,Greater London,SE20 7EU,-0.05217,51.41443,A Road,174.23
1022,"1 Riverside Walk, Kingston Upon Thames, KT1 1QN, Greater London",Kingston Upon Thames,Greater London,KT1 1QN,-0.30768,51.41094,A Road,40.38
1030,"Unit 3-6, Grove Village Parade, Stockport Road, Manchester, M13 9AB, North West",Manchester,North West,M13 9AB,-2.21575,53.46583,A Road,356.22
1037,"56-59 Strand, London, WC2N 5LR, Greater London",London,Greater London,WC2N 5LR,-0.12337,51.50948,A Road,172.41
1039,"74 High Street, Northallerton, DL7 8EG, Yorkshire and the Humber",Northallerton,Yorkshire and the Humber,DL7 8EG,-1.43532,54.34169,A Road,92.12
1040,"2 Friarage Street, Northallerton, DL6 1DP, Yorkshire and the Humber",Northallerton,Yorkshire and the Humber,DL6 1DP,-1.43353,54.34112,A Road,35.52
1044,"10 Market Place, Bedale, DL8 1EQ, Yorkshire and the Humber",Bedale,Yorkshire and the Humber,DL8 1EQ,-1.59281,54.28915,A Road,160.89
1052,"17-19 Millgate, Thirsk, YO7 1AA, Yorkshire and the Humber",Thirsk,Yorkshire and the Humber,YO7 1AA,-1.34215,54.23366,A Road,16.16
1053,"66-68 Market Place, Thirsk, YO7 1LW, Yorkshire and the Humber",Thirsk,Yorkshire and the Humber,YO7 1LW,-1.34154,54.23283,A Road,98.78
1062,"295 Chichester Road, Bognor Regis, PO21 5AL, South East",Bognor Regis,South East,PO21 5AL,-0.6907,50.79722,A Road,61
1070,"58 St. Thomas Street, London, SE1 3QX, Greater London",London,Greater London,SE1 3QX,-0.08406,51.50307,A Road,76.48
1076,"57-58 Upper Street, London, N1 0QH, Greater London",London,Greater London,N1 0QH,-0.1042,51.53558,A Road,12.08
1086,"9 Market Place, Thirsk, YO7 1HQ, Yorkshire and the Humber",Thirsk,Yorkshire and the Humber,YO7 1HQ,-1.34357,54.23224,A Road,49.83
1090,"28-29 The Quadrant, Richmond Upon Thames, TW9 1DN, Greater London",Richmond Upon Thames,Greater London,TW9 1DN,-0.30246,51.46262,A Road,41.64
1091,"2 Goldhawk Road, London, W12 8QD, Greater London",London,Greater London,W12 8QD,-0.22393,51.50322,A Road,73.96
1092,"59 Upper Street, London, N1 0NY, Greater London",London,Greater London,N1 0NY,-0.10421,51.5356,A Road,12.08
1102,"188-196 Regent Street, London, W1B 5BT, Greater London",London,Greater London,W1B 5BT,-0.14014,51.51284,A Road,137.88
1104,"146-152 Kensington High Street, London, W8 7RL, Greater London",London,Greater London,W8 7RL,-0.19412,51.50077,A Road,64.13
1125,"The Blue Fin Building, 110 Southwark Street, London, SE1 0TF, Greater London",London,Greater London,SE1 0TF,-0.09616,51.50508,A Road,19.88
1129,"37-41 Gracechurch Street, London, EC3V 0AX, Greater London",London,Greater London,EC3V 0AX,-0.08585,51.51117,A Road,34.11
1130,"Unit 1, Heron Tower, 110 Bishopsgate, London, EC2N 4AU, Greater London",London,Greater London,EC2N 4AU,-0.08184,51.51569,A Road,91.04
1154,"168-172 Sussex Gardens, London, W2 1TP, Greater London",London,Greater London,W2 1TP,-0.17381,51.51473,A Road,38.21
1156,"54-56 High Street, Dorking, RH4 1AY, South East",Dorking,South East,RH4 1AY,-0.33215,51.23177,A Road,152.46
1160,"238 High Street, Dorking, RH4 1QR, South East",Dorking,South East,RH4 1QR,-0.3288,51.23335,A Road,164.3
1161,"171 High Street, Dorking, RH4 1AD, South East",Dorking,South East,RH4 1AD,-0.33149,51.23217,A Road,152.46
1164,"64-65 West Street, Dorking, RH4 1BS, South East",Dorking,South East,RH4 1BS,-0.33343,51.23167,A Road,131.09
1165,"40 West Street, Dorking, RH4 1BU, South East",Dorking,South East,RH4 1BU,-0.33634,51.23177,A Road,81.24
586,"258-260 High Street, Orpington, BR6 0NB, Greater London",Orpington,Greater London,BR6 0NB,0.09921,51.37566,Alley,48.91
789,"2-3 London Road, London, SE1 6JZ, Greater London",London,Greater London,SE1 6JZ,-0.10455,51.49834,Alley,27.13
40,"Unit 4, St. Stephens Parade, Green Street, London, E7 8LQ, Greater London",London,Greater London,E7 8LQ,0.03406,51.53792,B Road,47.64
44,"50 High Street, Market Harborough, LE16 7AF, East Midlands",Market Harborough,East Midlands,LE16 7AF,-0.92338,52.48027,B Road,123.9
156,"Unit 2, 112-114 North End Road, London, W14 9PP, Greater London",London,Greater London,W14 9PP,-0.20566,51.48881,B Road,94.98
160,"60 Queensway, London, W2 3RL, Greater London",London,Greater London,W2 3RL,-0.18743,51.51227,B Road,123.48
280,"28 High Street, Newcastle Upon Tyne, NE3 1NQ, North East",Newcastle Upon Tyne,North East,NE3 1NQ,-1.61906,55.00047,B Road,5.83
319,"91 Marylebone High Street, London, W1U 4RB, Greater London",London,Greater London,W1U 4RB,-0.15198,51.52002,B Road,13.09
330,"1 The Green, London, W5 5DA, Greater London",London,Greater London,W5 5DA,-0.30507,51.51132,B Road,172.65
331,"23 The Green, London, W5 5DA, Greater London",London,Greater London,W5 5DA,-0.30545,51.51063,B Road,72.97
339,"25 Raeburn Place, Edinburgh, EH4 1HU, Scotland",Edinburgh,Scotland,EH4 1HU,-3.21111,55.95895,B Road,175.99
340,"64 Raeburn Place, Edinburgh, EH4 1HJ, Scotland",Edinburgh,Scotland,EH4 1HJ,-3.21258,55.95919,B Road,27.29
349,"57 Warwick Street, Leamington Spa, CV32 5JR, West Midlands",Leamington Spa,West Midlands,CV32 5JR,-1.53636,52.29203,B Road,73.35
352,"31 Yorkshire Street, Oldham, OL1 3RZ, North West",Oldham,North West,OL1 3RZ,-2.11031,53.54221,B Road,31.57
364,"13 Rosemount Viaduct, Aberdeen, AB25 1NE, Scotland",Aberdeen,Scotland,AB25 1NE,-2.10696,57.14766,B Road,41.83
384,"86-87 Western Road, Hove, BN3 1JB, South East",Hove,South East,BN3 1JB,-0.16083,50.82609,B Road,60.57
385,"136 Western Road, Brighton, BN1 2LA, South East",Brighton,South East,BN1 2LA,-0.15158,50.82481,B Road,55.91
386,"30-31 Western Road, Brighton, BN1 2EB, South East",Brighton,South East,BN1 2EB,-0.14657,50.82382,B Road,177.9
389,"67-70 North Street, Brighton, BN1 1RH, South East",Brighton,South East,BN1 1RH,-0.14345,50.82342,B Road,64.55
393,"146a North Street, Brighton, BN1 1RE, South East",Brighton,South East,BN1 1RE,-0.14123,50.82326,B Road,58.22
426,"27 High Street, Market Harborough, LE16 7NL, East Midlands",Market Harborough,East Midlands,LE16 7NL,-0.92289,52.47957,B Road,17.18
427,"48 High Street, Market Harborough, LE16 7AF, East Midlands",Market Harborough,East Midlands,LE16 7AF,-0.92291,52.47991,B Road,123.9
430,"10-12 James Street, London, W1U 1EE, Greater London",London,Greater London,W1U 1EE,-0.15028,51.51461,B Road,87.99
433,"20-22 Turnham Green Terrace, London, W4 1QP, Greater London",London,Greater London,W4 1QP,-0.25522,51.49338,B Road,310.64
458,"120-122 New Bond Street, London, W1S 1DT, Greater London",London,Greater London,W1S 1DT,-0.14499,51.51269,B Road,126.38
488,"Unit 17-18, Liverpool Central, Ranelagh Street, Liverpool, L1 1JW, North West",Liverpool,North West,L1 1JW,-2.98081,53.40475,B Road,60.5
521,"8-9 North Street, Brighton, BN1 1EB, South East",Brighton,South East,BN1 1EB,-0.13918,50.82208,B Road,72.55
524,"Unit 2, 32-36 North Street, Brighton, BN1 1EB, South East",Brighton,South East,BN1 1EB,-0.14109,50.82297,B Road,58.22
569,"27 Parade, Leamington Spa, CV32 4DE, West Midlands",Leamington Spa,West Midlands,CV32 4DE,-1.5357,52.29231,B Road,185.98
575,"Unit 2, The Brunswick, Marchmont Street, London, WC1N 1AE, Greater London",London,Greater London,WC1N 1AE,-0.12346,51.52354,B Road,122.56
635,"33 Parade, Leamington Spa, CV32 4BL, West Midlands",Leamington Spa,West Midlands,CV32 4BL,-1.53562,52.29188,B Road,49.25
685,"240 Great Portland Street, London, W1W 5QU, Greater London",London,Greater London,W1W 5QU,-0.14401,51.52313,B Road,14.31
714,"56 Victoria Street, London, SW1E 6QW, Greater London",London,Greater London,SW1E 6QW,-0.13584,51.49754,B Road,11.94
735,"1 The Cut, London, SE1 8JZ, Greater London",London,Greater London,SE1 8JZ,-0.10499,51.50356,B Road,33.83
736,"83-101 The Cut, London, SE1 8LL, Greater London",London,Greater London,SE1 8LL,-0.10692,51.50321,B Road,36.2
748,"82-84 St. Martin's Lane, London, WC2N 4AG, Greater London",London,Greater London,WC2N 4AG,-0.12727,51.51149,B Road,85.55
753,"127 Finsbury Pavement, London, EC2A 1NS, Greater London",London,Greater London,EC2A 1NS,-0.08756,51.5203,B Road,24.98
762,"136 Long Acre, London, WC2E 9AD, Greater London",London,Greater London,WC2E 9AD,-0.12662,51.51206,B Road,101.38
790,"75 North Street, Brighton, BN1 1ZA, South East",Brighton,South East,BN1 1ZA,-0.14378,50.82356,B Road,54.32
805,"46-48 James Street, London, W1U 1HA, Greater London",London,Greater London,W1U 1HA,-0.15076,51.51566,B Road,25.11
811,"7 Newhalls Road, South Queensferry, EH30 9TA, Scotland",South Queensferry,Scotland,EH30 9TA,-3.38509,55.99038,B Road,321.91
812,"53 High Street, South Queensferry, EH30 9HP, Scotland",South Queensferry,Scotland,EH30 9HP,-3.3934,55.98972,B Road,95.97
826,"24 High Street, South Queensferry, EH30 9PP, Scotland",South Queensferry,Scotland,EH30 9PP,-3.39596,55.99009,B Road,195.31
849,"John Dobson Street, Newcastle Upon Tyne, NE1 8JF, North East",Newcastle Upon Tyne,North East,NE1 8JF,-1.6112,54.97681,B Road,72.87
866,"2a Dyke Road, Brighton, BN1 3FE, South East",Brighton,South East,BN1 3FE,-0.14442,50.82401,B Road,74.69
925,"66 Mid Stocket Road, Aberdeen, AB15 5JB, Scotland",Aberdeen,Scotland,AB15 5JB,-2.12796,57.14973,B Road,46.02
930,"120 Rosemount Viaduct, Aberdeen, AB25 1NX, Scotland",Aberdeen,Scotland,AB25 1NX,-2.1104,57.14904,B Road,70.3
972,"6 Parade, Leamington Spa, CV32 4DW, West Midlands",Leamington Spa,West Midlands,CV32 4DW,-1.53614,52.29342,B Road,185.98
1004,"70-72 Queensway, London, W2 3RL, Greater London",London,Greater London,W2 3RL,-0.18747,51.51253,B Road,68.51
1011,"5 Bernard Street, London, WC1N 1LJ, Greater London",London,Greater London,WC1N 1LJ,-0.12465,51.5231,B Road,62.46
1025,"12 Craven Road, London, W2 3PX, Greater London",London,Greater London,W2 3PX,-0.17718,51.51485,B Road,66.36
1043,"198-202 High Street, Northallerton, DL7 8LP, Yorkshire and the Humber",Northallerton,Yorkshire and the Humber,DL7 8LP,-1.43412,54.33966,B Road,132
1046,"176 Arnold Road, Nottingham, NG5 1NJ, East Midlands",Nottingham,East Midlands,NG5 1NJ,-1.17233,52.99004,B Road,39.92
1051,"1 Kirkgate, Thirsk, YO7 1PQ, Yorkshire and the Humber",Thirsk,Yorkshire and the Humber,YO7 1PQ,-1.34391,54.23277,B Road,74.56
1068,"6-8 Abbey Road, Smethwick, B67 5RD, West Midlands",Smethwick,West Midlands,B67 5RD,-1.9749,52.47742,B Road,105.86
1085,"6 High Street, Middlesbrough, TS9 5DQ, North East",Middlesbrough,North East,TS9 5DQ,-1.19164,54.4702,B Road,66.19
1087,"130-131 High Street, Northallerton, DL7 8PQ, Yorkshire and the Humber",Northallerton,Yorkshire and the Humber,DL7 8PQ,-1.43357,54.33779,B Road,146.2
1097,"52 High Street, Middlesbrough, TS9 5AX, North East",Middlesbrough,North East,TS9 5AX,-1.19436,54.46965,B Road,88.2
1099,"152 High Street, Northallerton, DL7 8JX, Yorkshire and the Humber",Northallerton,Yorkshire and the Humber,DL7 8JX,-1.43392,54.33691,B Road,48.85
1155,"198-202 High Street, Northallerton, DL7 8LP, Yorkshire and the Humber",Northallerton,Yorkshire and the Humber,DL7 8LP,-1.43412,54.33966,B Road,132
10,"19-20 Great Sutton Street, London, EC1V 0DR, Greater London",London,Greater London,EC1V 0DR,-0.10053,51.52329,Local Street,51.89
16,"10 Pavement, York, YO1 9UP, Yorkshire and the Humber",York,Yorkshire and the Humber,YO1 9UP,-1.07986,53.95854,Local Street,57.88
19,"61 George Street, Oxford, OX1 2BQ, South East",Oxford,South East,OX1 2BQ,-1.26248,51.75337,Local Street,116.37
20,"19-21 Regent Street, Cambridge, CB2 1AB, East Of England",Cambridge,East Of England,CB2 1AB,0.12523,52.20175,Local Street,287.26
27,"Unit 1, 7-15 Church Street, Blackpool, FY1 1HJ, North West",Blackpool,North West,FY1 1HJ,-3.05427,53.81724,Local Street,44.11
29,"6 Haymarket, Leicester, LE1 3GD, East Midlands",Leicester,East Midlands,LE1 3GD,-1.13319,52.63654,Local Street,108.64
36,"143-149 Lewisham High Street, London, SE13 6AA, Greater London",London,Greater London,SE13 6AA,-0.01069,51.46079,Local Street,44.87
37,"143-149 Lewisham High Street, London, SE13 6AA, Greater London",London,Greater London,SE13 6AA,-0.01069,51.46079,Local Street,44.87
42,"1-3 Church Street, Market Harborough, LE16 7AA, East Midlands",Market Harborough,East Midlands,LE16 7AA,-0.92168,52.47888,Local Street,79.43
43,"20 Church Street, Market Harborough, LE16 7AA, East Midlands",Market Harborough,East Midlands,LE16 7AA,-0.92187,52.47921,Local Street,79.43
45,"32 St. Marys Road, Market Harborough, LE16 7DU, East Midlands",Market Harborough,East Midlands,LE16 7DU,-0.91805,52.47798,Local Street,57.28
46,"10 Adam & Eve Street, Market Harborough, LE16 7LT, East Midlands",Market Harborough,East Midlands,LE16 7LT,-0.91984,52.47831,Local Street,107.68
55,"22 Church Street, Market Harborough, LE16 7AA, East Midlands",Market Harborough,East Midlands,LE16 7AA,-0.92198,52.47927,Local Street,79.43
66,"The Parade, 127 High Street, Watford, WD17 1NA, East Of England",Watford,East Of England,WD17 1NA,-0.40062,51.65903,Local Street,101.64
68,"Unit C1, City Tower, Piccadilly Plaza, Manchester, M1 4AH, North West",Manchester,North West,M1 4AH,-2.2378,53.48034,Local Street,194.26
69,"Unit C1, City Tower, Piccadilly Plaza, Manchester, M1 4AH, North West",Manchester,North West,M1 4AH,-2.2378,53.48034,Local Street,194.26
70,"28 Church Street, Market Harborough, LE16 7AA, East Midlands",Market Harborough,East Midlands,LE16 7AA,-0.92222,52.47942,Local Street,40.78
95,"Angel Central, 34 Parkfield Street, London, N1 0PS, Greater London",London,Greater London,N1 0PS,-0.10595,51.5346,Local Street,52.61
96,"Angel Central, 34 Parkfield Street, London, N1 0PS, Greater London",London,Greater London,N1 0PS,-0.10595,51.5346,Local Street,52.61
98,"7 Marshall Street, London, W1F 7EH, Greater London",London,Greater London,W1F 7EH,-0.13759,51.51315,Local Street,44.08
99,"55 Wilton Road, London, SW1V 1DE, Greater London",London,Greater London,SW1V 1DE,-0.14133,51.49348,Local Street,96.55
103,"48a-50 Charing Cross Road, London, WC2H 0BB, Greater London",London,Greater London,WC2H 0BB,-0.1282,51.5119,Local Street,89.21
104,"Unit 13, Glasgow Central Station, Gordon Street, Glasgow, G1 3SQ, Scotland",Glasgow,Scotland,G1 3SQ,-4.25782,55.86057,Local Street,109.65
111,"40 Eastcastle Street, London, W1W 8DT, Greater London",London,Greater London,W1W 8DT,-0.13934,51.51645,Local Street,57.91
113,"156-158 Edgware Road, London, W2 2DS, Greater London",London,Greater London,W2 2DS,-0.1657,51.51706,Local Street,31.71
118,"15 Great Cumberland Place, London, W1H 7AS, Greater London",London,Greater London,W1H 7AS,-0.15957,51.51434,Local Street,42.05
119,"140-141 Park Lane, London, W1K 7AA, Greater London",London,Greater London,W1K 7AA,-0.15799,51.51286,Local Street,32.91
121,"6 Market Place, London, W1W 8AF, Greater London",London,Greater London,W1W 8AF,-0.14004,51.5164,Local Street,47.71
122,"33 Coventry Street, London, W1D 6BS, Greater London",London,Greater London,W1D 6BS,-0.13189,51.51026,Local Street,50.43
123,"4-5 Grosvenor Street, London, W1K 4PX, Greater London",London,Greater London,W1K 4PX,-0.14508,51.51212,Local Street,62.8
125,"31 Broadwick Street, London, W1F 0DG, Greater London",London,Greater London,W1F 0DG,-0.13601,51.51343,Local Street,19.07
127,"27 Sackville Street, London, W1S 3DT, Greater London",London,Greater London,W1S 3DT,-0.13894,51.51001,Local Street,185.25
130,"Vogue House, 1 Hanover Square, London, W1S 1HA, Greater London",London,Greater London,W1S 1HA,-0.14336,51.51359,Local Street,36.2
134,"45 Charing Cross Road, London, WC2H 0AN, Greater London",London,Greater London,WC2H 0AN,-0.12858,51.51197,Local Street,89.21
136,"1-2 Bridge Street, Cambridge, CB2 1UA, East Of England",Cambridge,East Of England,CB2 1UA,0.11932,52.20788,Local Street,99.69
140,"144 Camden High Street, London, NW1 0NE, Greater London",London,Greater London,NW1 0NE,-0.14187,51.53832,Local Street,63.53
141,"167-169 Camden High Street, London, NW1 7JY, Greater London",London,Greater London,NW1 7JY,-0.14216,51.53819,Local Street,63.53
143,"69 High Road, London, N22 6BB, Greater London",London,Greater London,N22 6BB,-0.10586,51.59237,Local Street,35.09
154,"359 King's Road, London, SW3 5ES, Greater London",London,Greater London,SW3 5ES,-0.17678,51.48365,Local Street,14.25
159,"103 Queensway, London, W2 4SJ, Greater London",London,Greater London,W2 4SJ,-0.18774,51.51282,Local Street,38.53
164,"106 The Horsefair, Bristol, BS1 3JX, South West",Bristol,South West,BS1 3JX,-2.58709,51.45857,Local Street,175.05
168,"9-11 Frederick Street, Edinburgh, EH2 2EY, Scotland",Edinburgh,Scotland,EH2 2EY,-3.19983,55.95216,Local Street,53.95
181,"Unit 4, The Griffin Centre, Market Place, Kingston Upon Thames, KT1 1JT, Greater London",Kingston Upon Thames,Greater London,KT1 1JT,-0.30644,51.40925,Local Street,20.18
182,"11-13 Thames Street, Kingston Upon Thames, KT1 1PH, Greater London",Kingston Upon Thames,Greater London,KT1 1PH,-0.30691,51.41031,Local Street,79.51
186,"19-23 Fife Road, Kingston Upon Thames, KT1 1SB, Greater London",Kingston Upon Thames,Greater London,KT1 1SB,-0.30312,51.41174,Local Street,117.66
191,"Unit 38-40, Ridings Shopping Centre, All Saints Walk, Wakefield, WF1 1DS, Yorkshire and the Humber",Wakefield,Yorkshire and the Humber,WF1 1DS,-1.49386,53.68197,Local Street,49.05
198,"Unit 65b, Ridings Shopping Centre, Bishopgate Walk, Wakefield, WF1 1DS, Yorkshire and the Humber",Wakefield,Yorkshire and the Humber,WF1 1DS,-1.49677,53.68156,Local Street,96.16
210,"48 Charing Cross Road, London, WC2H 0BS, Greater London",London,Greater London,WC2H 0BS,-0.12829,51.51181,Local Street,89.21
211,"14 New Row, London, WC2N 4LF, Greater London",London,Greater London,WC2N 4LF,-0.12556,51.51111,Local Street,52.23
213,"64 Brewer Street, London, W1F 9TP, Greater London",London,Greater London,W1F 9TP,-0.13633,51.51118,Local Street,62.28
214,"11 Macclesfield Street, London, W1D 5BW, Greater London",London,Greater London,W1D 5BW,-0.13131,51.51214,Local Street,79.81
216,"16 Newburgh Street, London, W1F 7RY, Greater London",London,Greater London,W1F 7RY,-0.13864,51.5134,Local Street,71.13
217,"10 Stafford Street, London, W1S 4RX, Greater London",London,Greater London,W1S 4RX,-0.14127,51.50868,Local Street,53.61
218,"33 Whitefriargate, Hull, HU1 2EX, Yorkshire and the Humber",Hull,Yorkshire and the Humber,HU1 2EX,-0.33761,53.74326,Local Street,18.51
226,"44-48 New Canal, Salisbury, SP1 2AQ, South West",Salisbury,South West,SP1 2AQ,-1.79583,51.0684,Local Street,75.15
227,"29 Market Place, Devizes, SN10 1JG, South West",Devizes,South West,SN10 1JG,-1.99617,51.35278,Local Street,38.31
229,"16 New George Street, Plymouth, PL1 1RL, South West",Plymouth,South West,PL1 1RL,-4.14033,50.37149,Local Street,111.28
233,"45-47 Market Place, Romford, RM1 3AB, Greater London",Romford,Greater London,RM1 3AB,0.18305,51.57993,Local Street,123.05
240,"8a St. Pauls Street, Leeds, LS1 2LE, Yorkshire and the Humber",Leeds,Yorkshire and the Humber,LS1 2LE,-1.55003,53.79789,Local Street,58.73
243,"20 Princes Dock Street, Hull, HU1 2LP, Yorkshire and the Humber",Hull,Yorkshire and the Humber,HU1 2LP,-0.3378,53.74228,Local Street,158.32
255,"106 Above Bar Street, Southampton, SO14 7DT, South East",Southampton,South East,SO14 7DT,-1.40429,50.90587,Local Street,225.88
261,"19 West Nile Street, Glasgow, G1 2PS, Scotland",Glasgow,Scotland,G1 2PS,-4.25542,55.86093,Local Street,48.5
262,"85 West George Street, Glasgow, G2 1QG, Scotland",Glasgow,Scotland,G2 1QG,-4.25489,55.86207,Local Street,32.75
268,"5 Church Street, Market Harborough, LE16 7AA, East Midlands",Market Harborough,East Midlands,LE16 7AA,-0.92175,52.47899,Local Street,79.43
270,"16 Seymour Place, London, W1H 7NQ, Greater London",London,Greater London,W1H 7NQ,-0.16104,51.51498,Local Street,36.4
276,"31-31a Bridge Street, Chester, CH1 1NG, North West",Chester,North West,CH1 1NG,-2.89126,53.18956,Local Street,129.43
278,"39 Eastgate Street, Chester, CH1 1LG, North West",Chester,North West,CH1 1LG,-2.88936,53.19084,Local Street,97.62
289,"24 Market Street, Bradford, BD1 1LE, Yorkshire and the Humber",Bradford,Yorkshire and the Humber,BD1 1LE,-1.75243,53.79395,Local Street,89.02
291,"The Emporium, 8-10 Oldham Street, Manchester, M1 1JQ, North West",Manchester,North West,M1 1JQ,-2.23621,53.48202,Local Street,95.94
292,"Smithfield Buildings, 51 Oldham Street, Manchester, M1 1JR, North West",Manchester,North West,M1 1JR,-2.2356,53.48274,Local Street,85.29
293,"56-58 Darley Street, Bradford, BD1 3HN, Yorkshire and the Humber",Bradford,Yorkshire and the Humber,BD1 3HN,-1.75543,53.79645,Local Street,53.26
297,"Unit 4, Greyfriars Road, Cardiff, CF10 3AD, Wales",Cardiff,Wales,CF10 3AD,-3.17556,51.48322,Local Street,62.36
299,"34 St. Mary Street, Cardiff, CF10 1AB, Wales",Cardiff,Wales,CF10 1AB,-3.17789,51.47843,Local Street,167.17
303,"36 St. Mary Street, Cardiff, CF10 1AD, Wales",Cardiff,Wales,CF10 1AD,-3.17782,51.47831,Local Street,167.17
305,"Unit ldu 1, The Basilica, 91-95 The Headrow, Leeds, LS1 6AG, Yorkshire and the Humber",Leeds,Yorkshire and the Humber,LS1 6AG,-1.54492,53.79928,Local Street,45.22
315,"3 Bridlington Road, Watford, WD19 7AF, East Of England",Watford,East Of England,WD19 7AF,-0.38881,51.62778,Local Street,30.36
318,"8 High Street, Reading, RG1 2EA, South East",Reading,South East,RG1 2EA,-0.96914,51.45522,Local Street,48.76
320,"52 Goodge Street, London, W1T 4LZ, Greater London",London,Greater London,W1T 4LZ,-0.13487,51.51873,Local Street,59.64
324,"Unit 2, 123a King's Road, London, SW3 4PL, Greater London",London,Greater London,SW3 4PL,-0.16605,51.48831,Local Street,237.62
325,"1 St. James Road, Kingston Upon Thames, KT1 2AH, Greater London",Kingston Upon Thames,Greater London,KT1 2AH,-0.3049,51.40864,Local Street,74.59
332,"13-14 Multrees Walk, Edinburgh, EH1 3DQ, Scotland",Edinburgh,Scotland,EH1 3DQ,-3.19049,55.95551,Local Street,100.41
342,"Unit 5, 192-196 Ingram Street, Glasgow, G1 1DG, Scotland",Glasgow,Scotland,G1 1DG,-4.24964,55.86009,Local Street,77.27
345,"8 Wide Bargate, Boston, PE21 6RF, East Midlands",Boston,East Midlands,PE21 6RF,-0.022,52.9798,Local Street,74.64
347,"Unit 1, 16-22 Goose Gate, Nottingham, NG1 1FF, East Midlands",Nottingham,East Midlands,NG1 1FF,-1.14288,52.95363,Local Street,52.63
351,"2 Retiro Street, Oldham, OL1 1SA, North West",Oldham,North West,OL1 1SA,-2.10923,53.54177,Local Street,37.52
354,"2-4 The Bridge, Taunton, TA1 1UG, South West",Taunton,South West,TA1 1UG,-3.10356,51.01714,Local Street,17.26
358,"55-57 Connaught Street, London, W2 2BB, Greater London",London,Greater London,W2 2BB,-0.16648,51.51431,Local Street,19.41
362,"26-28 Chapel Street, Aberdeen, AB10 1SP, Scotland",Aberdeen,Scotland,AB10 1SP,-2.1098,57.14419,Local Street,141.15
363,"5 Back Wynd, Aberdeen, AB10 1JN, Scotland",Aberdeen,Scotland,AB10 1JN,-2.10002,57.1467,Local Street,57.02
370,"5 Station Road, Solihull, B91 3TG, West Midlands",Solihull,West Midlands,B91 3TG,-1.7799,52.4139,Local Street,82.55
380,"Unit 1, Lincoln House, Turl Street, Oxford, OX1 3DQ, South East",Oxford,South East,OX1 3DQ,-1.25621,51.75312,Local Street,124.63
399,"1 East Street, Southampton, SO14 3HE, South East",Southampton,South East,SO14 3HE,-1.40387,50.90182,Local Street,109.15
400,"72 Northgate Street, Gloucester, GL1 1SL, South West",Gloucester,South West,GL1 1SL,-2.24355,51.86661,Local Street,64.97
406,"6-7 Maryport Street, Devizes, SN10 1AH, South West",Devizes,South West,SN10 1AH,-1.99265,51.35231,Local Street,143.25
409,"Unit 2, 51 Ship Street, Brighton, BN1 1AF, South East",Brighton,South East,BN1 1AF,-0.14159,50.82254,Local Street,77.49
421,"Biggin Gate, 10 Biggin Street, Dover, CT16 1BD, South East",Dover,South East,CT16 1BD,1.30986,51.12737,Local Street,21
431,"Unit 12a, The Broadway, High Road, London, N22 6DS, Greater London",London,Greater London,N22 6DS,-0.10938,51.59631,Local Street,99.91
432,"288 Chiswick High Road, London, W4 1PA, Greater London",London,Greater London,W4 1PA,-0.26007,51.49256,Local Street,33.54
436,"Unit 1, Queen Annes Court, Peascod Street, Windsor, SL4 1DG, South East",Windsor,South East,SL4 1DG,-0.61181,51.48077,Local Street,67.58
437,"65 East Street, Brighton, BN1 1HQ, South East",Brighton,South East,BN1 1HQ,-0.13917,50.82054,Local Street,96.17
438,"12 Watergate Street, Chester, CH1 2LA, North West",Chester,North West,CH1 2LA,-2.8922,53.19032,Local Street,241.09
440,"84 Regent Street, Leamington Spa, CV32 4NS, West Midlands",Leamington Spa,West Midlands,CV32 4NS,-1.53431,52.29036,Local Street,102.7
449,"88 Regent Street, Leamington Spa, CV32 4NS, West Midlands",Leamington Spa,West Midlands,CV32 4NS,-1.53425,52.29037,Local Street,102.7
453,"4-6 St. Peters Gate, Nottingham, NG1 2JG, East Midlands",Nottingham,East Midlands,NG1 2JG,-1.14758,52.95251,Local Street,52.93
461,"37 Bridge Street Row East, Chester, CH1 1NW, North West",Chester,North West,CH1 1NW,-2.89126,53.18926,Local Street,129.43
462,"27-29 High Street, Bromley, BR1 1LG, Greater London",Bromley,Greater London,BR1 1LG,0.01699,51.40088,Local Street,78.06
463,"34-35 Bridge Street, Cambridge, CB2 1UW, East Of England",Cambridge,East Of England,CB2 1UW,0.11667,52.2096,Local Street,100.65
465,"19 Bridge Street Row East, Chester, CH1 1NW, North West",Chester,North West,CH1 1NW,-2.89124,53.18975,Local Street,129.43
468,"30 Old London Road, Kingston Upon Thames, KT2 6QF, Greater London",Kingston Upon Thames,Greater London,KT2 6QF,-0.29954,51.41073,Local Street,159.03
472,"Unit 5, Ridings Shopping Centre, All Saints Walk, Wakefield, WF1 1DS, Yorkshire and the Humber",Wakefield,Yorkshire and the Humber,WF1 1DS,-1.49463,53.68201,Local Street,175.01
473,"Unit 74, Ridings Shopping Centre, Bishopgate Walk, Wakefield, WF1 1YB, Yorkshire and the Humber",Wakefield,Yorkshire and the Humber,WF1 1YB,-1.49584,53.68174,Local Street,175.01
475,"Unit 55, Ridings Shopping Centre, Bishopgate Walk, Wakefield, WF1 1DS, Yorkshire and the Humber",Wakefield,Yorkshire and the Humber,WF1 1DS,-1.4977,53.68214,Local Street,83.44
479,"24-28 Prince of Wales Road, Norwich, NR1 1LG, East Of England",Norwich,East Of England,NR1 1LG,1.30252,52.62927,Local Street,106.7
480,"19 St. Giles Street, Norwich, NR2 1JL, East Of England",Norwich,East Of England,NR2 1JL,1.29114,52.62919,Local Street,84.01
489,"59 Bold Street, Liverpool, L1 4EZ, North West",Liverpool,North West,L1 4EZ,-2.97797,53.40301,Local Street,134.82
492,"3-5 High Street, Croydon, CR0 1QB, Greater London",Croydon,Greater London,CR0 1QB,-0.10013,51.37344,Local Street,47.76
494,"50-54 High Street, Croydon, CR0 1YB, Greater London",Croydon,Greater London,CR0 1YB,-0.10057,51.37198,Local Street,12.08
498,"55 Chapel Market, London, N1 9EW, Greater London",London,Greater London,N1 9EW,-0.10759,51.53349,Local Street,100.97
499,"213-219 Camden High Street, London, NW1 7BT, Greater London",London,Greater London,NW1 7BT,-0.14334,51.53958,Local Street,107.04
502,"65 High Street, Bromley, BR1 1JY, Greater London",Bromley,Greater London,BR1 1JY,0.01612,51.4019,Local Street,70.42
516,"5 Frederick Street, Edinburgh, EH2 2EY, Scotland",Edinburgh,Scotland,EH2 2EY,-3.19958,55.95182,Local Street,29.89
519,"135 George Street, Aberdeen, AB25 1HU, Scotland",Aberdeen,Scotland,AB25 1HU,-2.1015,57.15007,Local Street,116.01
522,"Unit 14, The Broadway Bradford, Petergate Mall, Bradford, BD1 1AH, Yorkshire and the Humber",Bradford,Yorkshire and the Humber,BD1 1AH,-1.74905,53.79495,Local Street,171.99
527,"98-100 The Horsefair, Bristol, BS1 3JS, South West",Bristol,South West,BS1 3JS,-2.58714,51.4587,Local Street,175.05
532,"9 Foregate Street, Chester, CH1 1HD, North West",Chester,North West,CH1 1HD,-2.88845,53.19098,Local Street,97.62
533,"63-65 Foregate Street, Chester, CH1 1HD, North West",Chester,North West,CH1 1HD,-2.88613,53.19139,Local Street,40.77
534,"25-29 Coventry Street, London, W1D 7AG, Greater London",London,Greater London,W1D 7AG,-0.13252,51.51014,Local Street,76.55
544,"Royal Exchange Arcade, 6-10 Cross Street, Manchester, M2 7DH, North West",Manchester,North West,M2 7DH,-2.24395,53.48264,Local Street,76.57
547,"30 Bridge Street, Chester, CH1 1NQ, North West",Chester,North West,CH1 1NQ,-2.89145,53.18952,Local Street,129.43
548,"43-45 Bridge Street Row East, Chester, CH1 1NW, North West",Chester,North West,CH1 1NW,-2.89109,53.1893,Local Street,129.43
549,"Unit 1, 52 Pier Avenue, Clacton-On-Sea, CO15 1QB, East Of England",Clacton-On-Sea,East Of England,CO15 1QB,1.15193,51.78946,Local Street,210.63
576,"Unit G1, Trinity Walk Shopping Centre, Barden Road, Wakefield, WF1 1QS, Yorkshire and the Humber",Wakefield,Yorkshire and the Humber,WF1 1QS,-1.49569,53.68387,Local Street,29.54
577,"4 Windsor Place, Cardiff, CF10 3BX, Wales",Cardiff,Wales,CF10 3BX,-3.17308,51.48318,Local Street,73.25
578,"Unit 3, 69-75 Above Bar Street, Southampton, SO14 7DZ, South East",Southampton,South East,SO14 7DZ,-1.40448,50.90485,Local Street,74.79
579,"70 Above Bar Street, Southampton, SO14 7DS, South East",Southampton,South East,SO14 7DS,-1.40404,50.90477,Local Street,74.79
580,"109 Above Bar Street, Southampton, SO14 7FH, South East",Southampton,South East,SO14 7FH,-1.40467,50.90651,Local Street,225.88
581,"Unit 2, 14-16 Above Bar Street, Southampton, SO14 7DQ, South East",Southampton,South East,SO14 7DQ,-1.40394,50.90326,Local Street,43.88
595,"55 North Road, Durham, DH1 4SF, North East",Durham,North East,DH1 4SF,-1.5819,54.77761,Local Street,71.09
596,"41 Saddler Street, Durham, DH1 3NU, North East",Durham,North East,DH1 3NU,-1.57461,54.7758,Local Street,123.53
598,"Unit 3a, New Century House, West Street, Gateshead, NE8 1HR, North East",Gateshead,North East,NE8 1HR,-1.60318,54.96181,Local Street,60.6
604,"35-37 Bold Street, Liverpool, L1 4DN, North West",Liverpool,North West,L1 4DN,-2.97884,53.40345,Local Street,14.88
612,"31 Princess Street, Knutsford, WA16 6BW, North West",Knutsford,North West,WA16 6BW,-2.37525,53.30459,Local Street,53.85
620,"17 New Canal, Salisbury, SP1 2AA, South West",Salisbury,South West,SP1 2AA,-1.79498,51.0684,Local Street,75.15
638,"18 Kingly Street, London, W1B 5PX, Greater London",London,Greater London,W1B 5PX,-0.13953,51.51287,Local Street,113.7
644,"Unit 16, Vision Industrial Park, Kendal Avenue, London, W3 0AF, Greater London",London,Greater London,W3 0AF,-0.27665,51.52202,Local Street,293.58
646,"59 High Street, Bromley, BR1 1JY, Greater London",Bromley,Greater London,BR1 1JY,0.01625,51.4018,Local Street,118.11
647,"37 Essex Road, Dartford, DA1 2AU, South East",Dartford,South East,DA1 2AU,0.21458,51.44583,Local Street,82.17
649,"57 Ship Street, Brighton, BN1 1AF, South East",Brighton,South East,BN1 1AF,-0.1415,50.82212,Local Street,77.49
654,"42 Bridge Street, Chester, CH1 1NQ, North West",Chester,North West,CH1 1NQ,-2.89131,53.18913,Local Street,129.43
662,"41 Market Place, Kingston Upon Thames, KT1 1JQ, Greater London",Kingston Upon Thames,Greater London,KT1 1JQ,-0.3061,51.40906,Local Street,82.21
663,"49-51 Eden Street, Kingston Upon Thames, KT1 1BW, Greater London",Kingston Upon Thames,Greater London,KT1 1BW,-0.3028,51.40984,Local Street,86.03
664,"146-152 Clarence Street, Kingston Upon Thames, KT1 1QP, Greater London",Kingston Upon Thames,Greater London,KT1 1QP,-0.30067,51.41091,Local Street,62.83
665,"2a Clarence Street, Kingston Upon Thames, KT1 1PB, Greater London",Kingston Upon Thames,Greater London,KT1 1PB,-0.30657,51.41098,Local Street,79.51
672,"29 Watling Street, London, EC4M 9BR, Greater London",London,Greater London,EC4M 9BR,-0.09356,51.51289,Local Street,87.66
679,"22 Southwark Street, London, SE1 1TU, Greater London",London,Greater London,SE1 1TU,-0.09078,51.50483,Local Street,8.54
680,"4 Montague Close, London, SE1 9DA, Greater London",London,Greater London,SE1 9DA,-0.08903,51.50651,Local Street,36.08
687,"41 Romney Street, London, SW1P 3RF, Greater London",London,Greater London,SW1P 3RF,-0.12835,51.49525,Local Street,52.05
688,"14 Belgrave Road, London, SW1V 1QD, Greater London",London,Greater London,SW1V 1QD,-0.14462,51.49327,Local Street,157.24
689,"30 Queen's Gate Mews, London, SW7 5QL, Greater London",London,Greater London,SW7 5QL,-0.18092,51.49928,Local Street,162.58
690,"2 Rathbone Street, London, W1T 1NR, Greater London",London,Greater London,W1T 1NR,-0.13466,51.51798,Local Street,186.05
691,"33-37 Wardour Street, London, W1D 6PU, Greater London",London,Greater London,W1D 6PU,-0.13228,51.51141,Local Street,29.98
693,"8 Warren Street, London, W1T 5LD, Greater London",London,Greater London,W1T 5LD,-0.1385,51.52428,Local Street,106.62
694,"120 Euston Road, London, NW1 2AL, Greater London",London,Greater London,NW1 2AL,-0.1288,51.52819,Local Street,345.06
695,"65 Gloucester Avenue, London, NW1 8JH, Greater London",London,Greater London,NW1 8JH,-0.1509,51.54008,Local Street,126.37
697,"60 Greenwich Church Street, London, SE10 9BL, Greater London",London,Greater London,SE10 9BL,-0.00987,51.48221,Local Street,23.21
698,"137 Drummond Street, London, NW1 2HL, Greater London",London,Greater London,NW1 2HL,-0.13717,51.52686,Local Street,41.88
699,"57 Mornington Terrace, London, NW1 7RU, Greater London",London,Greater London,NW1 7RU,-0.14488,51.53614,Local Street,251.41
703,"Pickfords Wharf, 2 Clink Street, London, SE1 9DG, Greater London",London,Greater London,SE1 9DG,-0.09067,51.507,Local Street,32.83
706,"26-27 Foley Street, London, W1W 6DY, Greater London",London,Greater London,W1W 6DY,-0.14082,51.51923,Local Street,49.27
708,"114-116 New Oxford Street, London, WC1A 1HH, Greater London",London,Greater London,WC1A 1HH,-0.12939,51.51663,Local Street,139.27
711,"Unit 6, The Qube, 101-106 Tottenham Court Road, London, W1T 4TT, Greater London",London,Greater London,W1T 4TT,-0.13692,51.52268,Local Street,98.12
722,"1 Blackett Street, Newcastle Upon Tyne, NE1 5AU, North East",Newcastle Upon Tyne,North East,NE1 5AU,-1.61181,54.97419,Local Street,112.35
723,"Unit 2I-2K, Bond Street Shopping Centre, Bond Street, Chelmsford, CM1 1GH, East Of England",Chelmsford,East Of England,CM1 1GH,0.47566,51.73375,Local Street,175.57
728,"18-20 Broadway, London, SW1H 0BH, Greater London",London,Greater London,SW1H 0BH,-0.13332,51.49926,Local Street,9.43
732,"1 Chicheley Street, London, SE1 7PY, Greater London",London,Greater London,SE1 7PY,-0.11715,51.5027,Local Street,60.31
733,"29 Cornwall Road, London, SE1 8TJ, Greater London",London,Greater London,SE1 8TJ,-0.11059,51.50479,Local Street,101.27
737,"81-83 Waterloo Road, London, SE1 8UD, Greater London",London,Greater London,SE1 8UD,-0.11148,51.50368,Local Street,103.32
738,"22 Cornwall Road, London, SE1 8TW, Greater London",London,Greater London,SE1 8TW,-0.11033,51.50426,Local Street,103.32
740,"West India Quay, Hertsmere Road, London, E14 4AY, Greater London",London,Greater London,E14 4AY,-0.02234,51.50778,Local Street,172.17
744,"36 Riding House Street, London, W1W 7EP, Greater London",London,Greater London,W1W 7EP,-0.13958,51.51895,Local Street,65.76
746,"Butlers Wharf, 28C Shad Thames, London, SE1 2YG, Greater London",London,Greater London,SE1 2YG,-0.07269,51.50321,Local Street,39.31
747,"108 New Oxford Street, London, WC1A 1HD, Greater London",London,Greater London,WC1A 1HD,-0.12924,51.51666,Local Street,139.27
749,"19 Henrietta Street, London, WC2E 8QH, Greater London",London,Greater London,WC2E 8QH,-0.12408,51.51085,Local Street,121.03
751,"119-120 Lower Marsh, London, SE1 7AE, Greater London",London,Greater London,SE1 7AE,-0.11299,51.50075,Local Street,141.39
752,"73 City Road, London, EC1Y 1BD, Greater London",London,Greater London,EC1Y 1BD,-0.08742,51.52463,Local Street,64.28
754,"18-20 Appold Street, London, EC2A 2AS, Greater London",London,Greater London,EC2A 2AS,-0.08306,51.51989,Local Street,85.96
757,"13 Westbourne Terrace Road, London, W2 6NG, Greater London",London,Greater London,W2 6NG,-0.18399,51.521,Local Street,196.71
761,"33 Eastcastle Street, London, W1W 8ET, Greater London",London,Greater London,W1W 8ET,-0.13879,51.51654,Local Street,96.22
763,"8 Old Jewry, London, EC2R 8DN, Greater London",London,Greater London,EC2R 8DN,-0.09085,51.51407,Local Street,41.99
767,"44-46 Ludgate Hill, London, EC4M 7DE, Greater London",London,Greater London,EC4M 7DE,-0.1024,51.51404,Local Street,154.42
768,"103-105 Cannon Street, London, EC4N 5AG, Greater London",London,Greater London,EC4N 5AG,-0.08989,51.51179,Local Street,25.11
770,"1-3 Goslett Yard, London, WC2H 0EA, Greater London",London,Greater London,WC2H 0EA,-0.13088,51.51519,Local Street,61.27
773,"7 King Street, Stirling, FK8 1DN, Scotland",Stirling,Scotland,FK8 1DN,-3.93715,56.11765,Local Street,116.42
775,"19-21 Butcher Row, Salisbury, SP1 1EP, South West",Salisbury,South West,SP1 1EP,-1.79526,51.06874,Local Street,75.15
779,"45 East Street, Bromley, BR1 1QQ, Greater London",Bromley,Greater London,BR1 1QQ,0.01654,51.40774,Local Street,28.54
783,"50-52 High Street, Bromley, BR1 1EG, Greater London",Bromley,Greater London,BR1 1EG,0.01615,51.40135,Local Street,119.57
785,"Unit 12, Intu Eldon Square, Greys Quarter, Newcastle Upon Tyne, NE1 7AP, North East",Newcastle Upon Tyne,North East,NE1 7AP,-1.61456,54.97394,Local Street,27.09
803,"14 Old Compton Street, London, W1D 4TH, Greater London",London,Greater London,W1D 4TH,-0.13012,51.51373,Local Street,68.25
804,"31 Peter Street, London, W1F 0AP, Greater London",London,Greater London,W1F 0AP,-0.13395,51.51276,Local Street,42.72
806,"Thomas Neal's Centre, 41 Earlham Street, London, WC2H 9LX, Greater London",London,Greater London,WC2H 9LX,-0.12562,51.51397,Local Street,118.9
807,"Unit A, The Bower, 211 Old Street, London, EC1V 9NR, Greater London",London,Greater London,EC1V 9NR,-0.08921,51.52684,Local Street,84.27
808,"Unit 13, Adam's Walk, Eden Street, Kingston Upon Thames, KT1 1DF, Greater London",Kingston Upon Thames,Greater London,KT1 1DF,-0.30089,51.41033,Local Street,87.05
809,"38 Station Road, Clacton-On-Sea, CO15 1SX, East Of England",Clacton-On-Sea,East Of England,CO15 1SX,1.15347,51.78945,Local Street,126.37
817,"13 Stafford Street, Edinburgh, EH3 7BR, Scotland",Edinburgh,Scotland,EH3 7BR,-3.21124,55.94965,Local Street,80.83
825,"1 Erroll Street, Peterhead, AB42 1PU, Scotland",Peterhead,Scotland,AB42 1PU,-1.78163,57.50524,Local Street,120.18
827,"9 Shore Road, South Queensferry, EH30 9RD, Scotland",South Queensferry,Scotland,EH30 9RD,-3.40025,55.99089,Local Street,308.43
828,"Station Road, South Queensferry, EH30 9JU, Scotland",South Queensferry,Scotland,EH30 9JU,-3.38216,55.9867,Local Street,26.85
829,"3-4 Norfolk Place, London, W2 1QN, Greater London",London,Greater London,W2 1QN,-0.17181,51.51642,Local Street,31.82
830,"30 Norfolk Place, London, W2 1QH, Greater London",London,Greater London,W2 1QH,-0.1728,51.51687,Local Street,14.14
834,"1 Russell Street, Chester, CH3 5AL, North West",Chester,North West,CH3 5AL,-2.88123,53.19337,Local Street,31.01
847,"34 St. Ann Street, Manchester, M2 7LE, North West",Manchester,North West,M2 7LE,-2.24493,53.48167,Local Street,122.52
861,"28 Southgate Street, Gloucester, GL1 2DP, South West",Gloucester,South West,GL1 2DP,-2.24693,51.8646,Local Street,63.92
862,"33 St. Aldate Street, Gloucester, GL1 1RP, South West",Gloucester,South West,GL1 1RP,-2.2428,51.86597,Local Street,130.3
865,"32 Norfolk Place, London, W2 1QH, Greater London",London,Greater London,W2 1QH,-0.17258,51.51673,Local Street,36.64
867,"31 Norfolk Place, London, W2 1QH, Greater London",London,Greater London,W2 1QH,-0.17263,51.51676,Local Street,43.19
874,"13 High Street, Southend-On-Sea, SS1 1JE, East Of England",Southend-On-Sea,East Of England,SS1 1JE,0.71404,51.53483,Local Street,97.06
875,"33 Norfolk Place, London, W2 1QH, Greater London",London,Greater London,W2 1QH,-0.17253,51.5167,Local Street,36.64
876,"26 Britton Street, London, EC1M 5UB, Greater London",London,Greater London,EC1M 5UB,-0.10399,51.52138,Local Street,131.88
877,"12 Electric Avenue, London, SW9 8JX, Greater London",London,Greater London,SW9 8JX,-0.11421,51.46228,Local Street,84.56
878,"13-19 Vine Hill, London, EC1R 5DW, Greater London",London,Greater London,EC1R 5DW,-0.1109,51.5225,Local Street,109.76
881,"65 Newcomen Street, London, SE1 1YT, Greater London",London,Greater London,SE1 1YT,-0.09089,51.50285,Local Street,124.82
883,"159 Friar Street, Reading, RG1 1HE, South East",Reading,South East,RG1 1HE,-0.97121,51.45662,Local Street,13.13
887,"Blagrave Street, Reading, RG1 1PZ, South East",Reading,South East,RG1 1PZ,-0.9701,51.45702,Local Street,46.31
892,"99 West Bow, Edinburgh, EH1 2JP, Scotland",Edinburgh,Scotland,EH1 2JP,-3.19465,55.94817,Local Street,75.77
897,"3-15 Rose Street, Edinburgh, EH2 2PR, Scotland",Edinburgh,Scotland,EH2 2PR,-3.19482,55.95322,Local Street,84.64
900,"30-31 Princes Street, Edinburgh, EH2 2BY, Scotland",Edinburgh,Scotland,EH2 2BY,-3.19181,55.95306,Local Street,131.48
904,"13-19 Vine Hill, London, EC1R 5DW, Greater London",London,Greater London,EC1R 5DW,-0.1109,51.5225,Local Street,109.76
911,"25 Market Place, Market Rasen, LN7 6TU, East Midlands",Market Rasen,East Midlands,LN7 6TU,-0.31484,53.4965,Local Street,39.7
926,"5-9 Greenfern Road, Aberdeen, AB16 5PY, Scotland",Aberdeen,Scotland,AB16 5PY,-2.16,57.15622,Local Street,77.11
927,"1-4 Byron Square, Aberdeen, AB16 7LL, Scotland",Aberdeen,Scotland,AB16 7LL,-2.16324,57.16551,Local Street,126.41
929,"270 Clifton Road, Aberdeen, AB24 4HA, Scotland",Aberdeen,Scotland,AB24 4HA,-2.12452,57.16712,Local Street,56.28
932,"Unit 1a, Brindleyplace, 60 Brunswick Street, Birmingham, B1 2JF, West Midlands",Birmingham,West Midlands,B1 2JF,-1.91435,52.47788,Local Street,135.37
936,"87 Main Street, Glasgow, G46 7RY, Scotland",Glasgow,Scotland,G46 7RY,-4.31569,55.80774,Local Street,121.4
940,"33 Pier Avenue, Clacton-On-Sea, CO15 1QE, East Of England",Clacton-On-Sea,East Of England,CO15 1QE,1.15249,51.7887,Local Street,210.63
949,"Regent Square House, 75-77 Parade, Leamington Spa, CV32 4NL, West Midlands",Leamington Spa,West Midlands,CV32 4NL,-1.53537,52.29028,Local Street,102.7
956,"340 Chiswick High Road, London, W4 5TA, Greater London",London,Greater London,W4 5TA,-0.2625,51.49251,Local Street,61.05
960,"38-40 Wheeler Gate, Nottingham, NG1 2ND, East Midlands",Nottingham,East Midlands,NG1 2ND,-1.14944,52.95221,Local Street,175.39
982,"13 Regent Street, London, SW1Y 4LR, Greater London",London,Greater London,SW1Y 4LR,-0.1339,51.5086,Local Street,55.56
985,"93-95 St. John's Road, London, SW11 1QY, Greater London",London,Greater London,SW11 1QY,-0.16698,51.4609,Local Street,102.82
987,"130 St. Johns Wood High Street, London, NW8 7SE, Greater London",London,Greater London,NW8 7SE,-0.17069,51.53365,Local Street,49.2
999,"Unit K1, Stratford Centre, Broadway, London, E15 1BB, Greater London",London,Greater London,E15 1BB,-0.00157,51.54159,Local Street,10.6
1000,"136-138 Camden High Street, London, NW1 0LU, Greater London",London,Greater London,NW1 0LU,-0.14175,51.5381,Local Street,63.53
1002,"Unit 3, Marylebone Railway Station, Melcombe Place, London, NW1 6JJ, Greater London",London,Greater London,NW1 6JJ,-0.16283,51.52242,Local Street,51.02
1017,"15 Commercial Road, Gloucester, GL1 2DY, South West",Gloucester,South West,GL1 2DY,-2.24898,51.86365,Local Street,88.52
1021,"Marshalls Yard, Gainsborough, DN21 2NA, East Midlands",Gainsborough,East Midlands,DN21 2NA,-0.77309,53.39974,Local Street,31.41
1026,"40-42 Craven Road, London, W2 3QA, Greater London",London,Greater London,W2 3QA,-0.17934,51.51364,Local Street,172.29
1027,"26 Britton Street, London, EC1M 5UB, Greater London",London,Greater London,EC1M 5UB,-0.10399,51.52138,Local Street,131.88
1028,"2 Craven Avenue, Canvey Island, SS8 0DJ, East Of England",Canvey Island,East Of England,SS8 0DJ,0.58007,51.51996,Local Street,83.29
1031,"Unit 15, Manchester Arndale, Corporation Street, Manchester, M4 4DG, North West",Manchester,North West,M4 4DG,-2.24327,53.48346,Local Street,217.14
1032,"Unit 1, 6-12 Fountain Street, Manchester, M2 2AA, North West",Manchester,North West,M2 2AA,-2.23993,53.48189,Local Street,65.33
1042,"216-217 High Street, Northallerton, DL7 8LW, Yorkshire and the Humber",Northallerton,Yorkshire and the Humber,DL7 8LW,-1.43496,54.34075,Local Street,96.14
1047,"64-66 Castle Street, Dover, CT16 1PA, South East",Dover,South East,CT16 1PA,1.31396,51.12523,Local Street,84.73
1048,"149 Friar Street, Reading, RG1 1EX, South East",Reading,South East,RG1 1EX,-0.972,51.45667,Local Street,127.27
1050,"9 Bridlesmith Gate, Nottingham, NG1 2GS, East Midlands",Nottingham,East Midlands,NG1 2GS,-1.14715,52.95275,Local Street,52.93
1056,"Unit 2, Spring Street, York, YO61 3BJ, Yorkshire and the Humber",York,Yorkshire and the Humber,YO61 3BJ,-1.19158,54.12246,Local Street,55.88
1058,"13-19 Vine Hill, London, EC1R 5DW, Greater London",London,Greater London,EC1R 5DW,-0.1109,51.5225,Local Street,109.76
1061,"90a Queen Street, Peterhead, AB42 1TU, Scotland",Peterhead,Scotland,AB42 1TU,-1.78302,57.508,Local Street,121.64
1063,"Unit 3, 134-138 North Street, Brighton, BN1 1RG, South East",Brighton,South East,BN1 1RG,-0.14221,50.82347,Local Street,161.94
1069,"105 Clarence Street, Kingston Upon Thames, KT1 1QY, Greater London",Kingston Upon Thames,Greater London,KT1 1QY,-0.30103,51.41102,Local Street,62.83
1073,"60-62 Westgate Street, Gloucester, GL1 2NZ, South West",Gloucester,South West,GL1 2NZ,-2.24807,51.8666,Local Street,49.65
1075,"26 Chapel Market, London, N1 9EZ, Greater London",London,Greater London,N1 9EZ,-0.10855,51.53364,Local Street,45.39
1080,"Station Approach, Ormskirk, L39 2YN, North West",Ormskirk,North West,L39 2YN,-2.88103,53.56926,Local Street,123.26
1081,"Station Approach, Ormskirk, L39 2YN, North West",Ormskirk,North West,L39 2YN,-2.88103,53.56926,Local Street,123.26
1082,"Station Approach, Ormskirk, L39 2YN, North West",Ormskirk,North West,L39 2YN,-2.88103,53.56926,Local Street,123.26
1083,"Station Approach, Ormskirk, L39 2YN, North West",Ormskirk,North West,L39 2YN,-2.88103,53.56926,Local Street,123.26
1093,"3 Eden Street, Kingston Upon Thames, KT1 1BQ, Greater London",Kingston Upon Thames,Greater London,KT1 1BQ,-0.30564,51.40903,Local Street,82.21
1096,"92 High Street, Northallerton, DL7 8PT, Yorkshire and the Humber",Northallerton,Yorkshire and the Humber,DL7 8PT,-1.43418,54.34044,Local Street,90.47
1098,"2 Market Place, Middlesbrough, TS9 5DG, North East",Middlesbrough,North East,TS9 5DG,-1.19274,54.46965,Local Street,111.07
1117,"184 High Street, Beckenham, BR3 1EN, Greater London",Beckenham,Greater London,BR3 1EN,-0.02725,51.40617,Local Street,105.7
1118,"153 High Street, Beckenham, BR3 1AE, Greater London",Beckenham,Greater London,BR3 1AE,-0.02825,51.40657,Local Street,105.7
1120,"Spinningfields, 2 Hardman Boulevard, Manchester, M3 3AQ, North West",Manchester,North West,M3 3AQ,-2.25359,53.48075,Local Street,11.12
1135,"9 Cabot Square, London, E14 4QT, Greater London",London,Greater London,E14 4QT,-0.02225,51.50569,Local Street,77.11
1138,"Unit 5, 2 New Street Square, London, EC4A 3BN, Greater London",London,Greater London,EC4A 3BN,-0.10746,51.516,Local Street,88.56
1139,"Unit 5, 2 New Street Square, London, EC4A 3BN, Greater London",London,Greater London,EC4A 3BN,-0.10746,51.516,Local Street,88.56
1142,"Unit 1, Lime Street Building, 25 Fenchurch Avenue, London, EC3M 5AD, Greater London",London,Greater London,EC3M 5AD,-0.08129,51.51256,Local Street,81.44
1144,"27 Bush Lane, London, EC4R 0AA, Greater London",London,Greater London,EC4R 0AA,-0.08958,51.51089,Local Street,42.84
1147,"92-96 Northgate Street, Gloucester, GL1 1SL, South West",Gloucester,South West,GL1 1SL,-2.24133,51.86615,Local Street,29.51
1157,"28-30 South Street, Dorking, RH4 2HQ, South East",Dorking,South East,RH4 2HQ,-0.33377,51.23111,Local Street,59.53
1158,"78 South Street, Dorking, RH4 2HD, South East",Dorking,South East,RH4 2HD,-0.33456,51.23,Local Street,9.05
1159,"Reigate Road, Dorking, RH4 1SN, South East",Dorking,South East,RH4 1SN,-0.32444,51.23472,Local Street,37.77
1163,"1 High Street, Dorking, RH4 1AR, South East",Dorking,South East,RH4 1AR,-0.33299,51.23162,Local Street,55.5
28,"17-27 Orford Place, Norwich, NR1 3QA, East Of England",Norwich,East Of England,NR1 3QA,1.29432,52.62699,Minor Road,30.32
56,"49 Red Lion Street, London, WC1R 4PF, Greater London",London,Greater London,WC1R 4PF,-0.11756,51.51991,Minor Road,85.7
60,"40 Museum Street, London, WC1A 1LU, Greater London",London,Greater London,WC1A 1LU,-0.12575,51.51787,Minor Road,53.26
85,"Market Road, Chelmsford, CM1 1XA, East Of England",Chelmsford,East Of England,CM1 1XA,0.47171,51.73434,Minor Road,183.33
88,"Unit 21-22, The Royal Exchange, Royal Exchange, London, EC3V 3LP, Greater London",London,Greater London,EC3V 3LP,-0.08682,51.51384,Minor Road,30.18
89,"Unit 21-22, The Royal Exchange, Royal Exchange, London, EC3V 3LP, Greater London",London,Greater London,EC3V 3LP,-0.08682,51.51384,Minor Road,30.18
90,"Unit 21-22, The Royal Exchange, Royal Exchange, London, EC3V 3LP, Greater London",London,Greater London,EC3V 3LP,-0.08682,51.51384,Minor Road,30.18
91,"Unit 21-22, The Royal Exchange, Royal Exchange, London, EC3V 3LP, Greater London",London,Greater London,EC3V 3LP,-0.08682,51.51384,Minor Road,30.18
92,"Unit 21-22, The Royal Exchange, Royal Exchange, London, EC3V 3LP, Greater London",London,Greater London,EC3V 3LP,-0.08682,51.51384,Minor Road,30.18
109,"87 Wardour Street, London, W1F 0UA, Greater London",London,Greater London,W1F 0UA,-0.13362,51.51261,Minor Road,46.21
114,"108-110 Edgware Road, London, W2 2EA, Greater London",London,Greater London,W2 2EA,-0.16395,51.51582,Minor Road,22.48
126,"15 Baker Street, London, W1U 3BX, Greater London",London,Greater London,W1U 3BX,-0.15544,51.51726,Minor Road,154.42
128,"Lansdowne House, 55 Berkeley Square, London, W1J 6ER, Greater London",London,Greater London,W1J 6ER,-0.14516,51.50882,Minor Road,28.99
169,"34-36 Hanover Street, Edinburgh, EH2 2DR, Scotland",Edinburgh,Scotland,EH2 2DR,-3.19716,55.95306,Minor Road,37.26
172,"25 George Iv Bridge, Edinburgh, EH1 1EN, Scotland",Edinburgh,Scotland,EH1 1EN,-3.1916,55.94759,Minor Road,23.73
224,"40 Blue Boar Row, Salisbury, SP1 1DA, South West",Salisbury,South West,SP1 1DA,-1.79535,51.06973,Minor Road,66.98
239,"104-108 West Street, Boston, PE21 8QN, East Midlands",Boston,East Midlands,PE21 8QN,-0.02862,52.97598,Minor Road,47.29
245,"108 South Street, Romford, RM1 1SS, Greater London",Romford,Greater London,RM1 1SS,0.18299,51.57545,Minor Road,54.46
247,"41 High Street, Sheffield, S1 2GB, Yorkshire and the Humber",Sheffield,Yorkshire and the Humber,S1 2GB,-1.46676,53.38304,Minor Road,151.65
251,"153 Pinstone Street, Sheffield, S1 2HL, Yorkshire and the Humber",Sheffield,Yorkshire and the Humber,S1 2HL,-1.47152,53.37811,Minor Road,62.46
259,"203-205 Argyle Street, Glasgow, G2 8BU, Scotland",Glasgow,Scotland,G2 8BU,-4.25675,55.85828,Minor Road,62.58
260,"Unit 1, 92-96 Argyle Street, Glasgow, G2 8BQ, Scotland",Glasgow,Scotland,G2 8BQ,-4.25316,55.85798,Minor Road,145.75
269,"38 Connaught Street, London, W2 2AF, Greater London",London,Greater London,W2 2AF,-0.16625,51.51451,Minor Road,102
300,"79 Wardour Street, London, W1D 6QB, Greater London",London,Greater London,W1D 6QB,-0.13311,51.51232,Minor Road,70.37
313,"23 Drury Lane, London, WC2B 5RH, Greater London",London,Greater London,WC2B 5RH,-0.12309,51.51517,Minor Road,58
321,"9 Duke Street, Reading, RG1 4SA, South East",Reading,South East,RG1 4SA,-0.9687,51.45456,Minor Road,43.71
326,"15 Warwick Way, London, SW1V 1QT, Greater London",London,Greater London,SW1V 1QT,-0.13929,51.49253,Minor Road,79.17
341,"63-65 George Street, Edinburgh, EH2 2JL, Scotland",Edinburgh,Scotland,EH2 2JL,-3.19998,55.9533,Minor Road,41.26
348,"19 Market Street, Nottingham, NG1 6HX, East Midlands",Nottingham,East Midlands,NG1 6HX,-1.15149,52.95461,Minor Road,118.09
350,"51 Regent Street, Leamington Spa, CV32 5EE, West Midlands",Leamington Spa,West Midlands,CV32 5EE,-1.53712,52.29037,Minor Road,102.53
355,"227-229 High Street, Gateshead, NE8 1AS, North East",Gateshead,North East,NE8 1AS,-1.6006,54.96268,Minor Road,104.57
359,"1-3 Machon Bank Road, Sheffield, S7 1PE, Yorkshire and the Humber",Sheffield,Yorkshire and the Humber,S7 1PE,-1.4876,53.35975,Minor Road,115.46
360,"276 Glossop Road, Sheffield, S10 2HS, Yorkshire and the Humber",Sheffield,Yorkshire and the Humber,S10 2HS,-1.48174,53.3802,Minor Road,52.08
375,"Unit 2, Cantay House, 36-39 Park End Street, Oxford, OX1 1JD, South East",Oxford,South East,OX1 1JD,-1.26566,51.75259,Minor Road,134.33
377,"17 Broad Street, Oxford, OX1 3AS, South East",Oxford,South East,OX1 3AS,-1.25736,51.75418,Minor Road,124.33
382,"42 Blatchington Road, Hove, BN3 3YH, South East",Hove,South East,BN3 3YH,-0.17536,50.83136,Minor Road,56.75
383,"47 Blatchington Road, Hove, BN3 3YJ, South East",Hove,South East,BN3 3YJ,-0.17553,50.8316,Minor Road,63.78
398,"31 London Road, Southampton, SO15 2AD, South East",Southampton,South East,SO15 2AD,-1.40429,50.91162,Minor Road,224.04
401,"62 Cotham Hill, Bristol, BS6 6JR, South West",Bristol,South West,BS6 6JR,-2.60701,51.46323,Minor Road,83.74
402,"56 Cotham Hill, Bristol, BS6 6JX, South West",Bristol,South West,BS6 6JX,-2.60719,51.46337,Minor Road,64.62
405,"141 Eastgate Street, Gloucester, GL1 1QB, South West",Gloucester,South West,GL1 1QB,-2.23925,51.86199,Minor Road,169.13
407,"12-14 Catherine Street, Salisbury, SP1 2DA, South West",Salisbury,South West,SP1 2DA,-1.79406,51.06827,Minor Road,187.56
408,"10 Catherine Street, Salisbury, SP1 2DA, South West",Salisbury,South West,SP1 2DA,-1.79411,51.06836,Minor Road,187.56
410,"99a Percy Street, Newcastle Upon Tyne, NE1 7RT, North East",Newcastle Upon Tyne,North East,NE1 7RT,-1.61528,54.97677,Minor Road,116.1
411,"21 Fore Street, Taunton, TA1 1JA, South West",Taunton,South West,TA1 1JA,-3.10352,51.01448,Minor Road,106.22
417,"73 High Street, Lymington, SO41 9AL, South East",Lymington,South East,SO41 9AL,-1.54376,50.75799,Minor Road,248.97
418,"120 High Street, Lymington, SO41 9AQ, South East",Lymington,South East,SO41 9AQ,-1.5395,50.75894,Minor Road,244.24
419,"34-35 High Street, Lymington, SO41 9AF, South East",Lymington,South East,SO41 9AF,-1.54113,50.75849,Minor Road,244.24
443,"2 Queen Street, Salisbury, SP1 1EY, South West",Salisbury,South West,SP1 1EY,-1.79417,51.0687,Minor Road,187.56
447,"69 George Street, Edinburgh, EH2 2JG, Scotland",Edinburgh,Scotland,EH2 2JG,-3.20037,55.95324,Minor Road,15.79
466,"31-33 Frodsham Street, Chester, CH1 3JJ, North West",Chester,North West,CH1 3JJ,-2.88867,53.19233,Minor Road,87.43
515,"14-16 Hanover Street, Edinburgh, EH2 2EN, Scotland",Edinburgh,Scotland,EH2 2EN,-3.19666,55.95238,Minor Road,82.03
539,"13 Eastgate, Leeds, LS2 7LY, Yorkshire and the Humber",Leeds,Yorkshire and the Humber,LS2 7LY,-1.53821,53.79889,Minor Road,225.9
552,"52 High Street, Lymington, SO41 9AG, South East",Lymington,South East,SO41 9AG,-1.54336,50.75788,Minor Road,248.97
555,"95 Pinstone Street, Sheffield, S1 2HJ, Yorkshire and the Humber",Sheffield,Yorkshire and the Humber,S1 2HJ,-1.47051,53.37908,Minor Road,122.5
564,"17 Union Street, Glasgow, G1 3RB, Scotland",Glasgow,Scotland,G1 3RB,-4.25697,55.85868,Minor Road,246.73
582,"8-10 Magdalen Street, Norwich, NR3 1HU, East Of England",Norwich,East Of England,NR3 1HU,1.29669,52.63384,Minor Road,170.2
583,"63 Great Russell Street, London, WC1B 3BF, Greater London",London,Greater London,WC1B 3BF,-0.12489,51.51864,Minor Road,26.4
584,"316 High Street, Orpington, BR6 0NG, Greater London",Orpington,Greater London,BR6 0NG,0.098,51.37424,Minor Road,153.92
585,"299-301 High Street, Orpington, BR6 0NN, Greater London",Orpington,Greater London,BR6 0NN,0.09826,51.37411,Minor Road,153.92
587,"195-197 High Street, Orpington, BR6 0PF, Greater London",Orpington,Greater London,BR6 0PF,0.10001,51.37665,Minor Road,145.46
588,"104 High Street, Orpington, BR6 0JY, Greater London",Orpington,Greater London,BR6 0JY,0.10241,51.37932,Minor Road,76.31
589,"202-206 High Street, Orpington, BR6 0JN, Greater London",Orpington,Greater London,BR6 0JN,0.10001,51.37694,Minor Road,229.24
608,"Unit 7-10, Suffolk House, George Street, Croydon, CR0 1PE, Greater London",Croydon,Greater London,CR0 1PE,-0.09564,51.37416,Minor Road,163.86
628,"1 Great Marlborough Street, London, W1F 7HG, Greater London",London,Greater London,W1F 7HG,-0.13739,51.51489,Minor Road,103.87
631,"82 South Street, Romford, RM1 1RX, Greater London",Romford,Greater London,RM1 1RX,0.18243,51.57608,Minor Road,107.3
659,"137 Buchanan Street, Glasgow, G1 2JA, Scotland",Glasgow,Scotland,G1 2JA,-4.25408,55.86117,Minor Road,87.32
660,"22 Stockwell Street, Glasgow, G1 4RT, Scotland",Glasgow,Scotland,G1 4RT,-4.24942,55.85722,Minor Road,112.7
692,"71 Marylebone High Street, London, W1U 5JN, Greater London",London,Greater London,W1U 5JN,-0.1521,51.52144,Minor Road,22.84
704,"68-70 Whitfield Street, London, W1T 4EY, Greater London",London,Greater London,W1T 4EY,-0.13662,51.52184,Minor Road,32.84
742,"37 Cavendish Square, London, W1G 0PP, Greater London",London,Greater London,W1G 0PP,-0.1436,51.51614,Minor Road,76.53
743,"47 Maddox Street, London, W1S 2PG, Greater London",London,Greater London,W1S 2PG,-0.14383,51.51236,Minor Road,96.67
774,"79 Murray Place, Stirling, FK8 1AU, Scotland",Stirling,Scotland,FK8 1AU,-3.93754,56.11954,Minor Road,23.99
781,"194 High Street, Bromley, BR1 1HE, Greater London",Bromley,Greater London,BR1 1HE,0.01407,51.40565,Minor Road,46.56
797,"Quaker Way, Mansfield, NG18 1SX, East Midlands",Mansfield,East Midlands,NG18 1SX,-1.19794,53.14311,Minor Road,81.66
800,"14 Spring Street, London, W2 3RA, Greater London",London,Greater London,W2 3RA,-0.17593,51.51476,Minor Road,49.98
801,"41-43 Spring Street, London, W2 1JA, Greater London",London,Greater London,W2 1JA,-0.17507,51.51437,Minor Road,57.75
810,"13 London Street, London, W2 1HL, Greater London",London,Greater London,W2 1HL,-0.17428,51.51529,Minor Road,30.41
819,"41 Broad Street, Peterhead, AB42 1JB, Scotland",Peterhead,Scotland,AB42 1JB,-1.77673,57.50518,Minor Road,70.11
824,"21 Queen Street, Peterhead, AB42 1TN, Scotland",Peterhead,Scotland,AB42 1TN,-1.78019,57.50666,Minor Road,190.14
835,"6a Walkergate, Durham, DH1 1SQ, North East",Durham,North East,DH1 1SQ,-1.57593,54.77797,Minor Road,113.25
840,"Unit 1, 9 Brindley Place, Birmingham, B1 2HS, West Midlands",Birmingham,West Midlands,B1 2HS,-1.91245,52.47682,Minor Road,103.96
843,"1-7 Dumbarton Road, Stirling, FK8 2LQ, Scotland",Stirling,Scotland,FK8 2LQ,-3.9371,56.11651,Minor Road,106.84
846,"3-4 Argyll Street, London, W1F 7TB, Greater London",London,Greater London,W1F 7TB,-0.14026,51.51413,Minor Road,66.49
888,"21 Church Street, Lutterworth, LE17 4AF, East Midlands",Lutterworth,East Midlands,LE17 4AF,-1.20095,52.45553,Minor Road,109.68
890,"13 Cowgatehead, Edinburgh, EH1 1JY, Scotland",Edinburgh,Scotland,EH1 1JY,-3.19366,55.94795,Minor Road,53.39
891,"11 West Port, Edinburgh, EH1 2JA, Scotland",Edinburgh,Scotland,EH1 2JA,-3.19799,55.94693,Minor Road,231.8
899,"117-119 George Street, Edinburgh, EH2 4JN, Scotland",Edinburgh,Scotland,EH2 4JN,-3.20454,55.95235,Minor Road,124.76
901,"89 George Street, Edinburgh, EH2 3ES, Scotland",Edinburgh,Scotland,EH2 3ES,-3.20203,55.95275,Minor Road,190.96
902,"90 George Street, Edinburgh, EH2 3DF, Scotland",Edinburgh,Scotland,EH2 3DF,-3.2025,55.9526,Minor Road,190.96
907,"51-53 Lord Street, Gainsborough, DN21 2DD, East Midlands",Gainsborough,East Midlands,DN21 2DD,-0.77568,53.39988,Minor Road,52.51
908,"33 Market Street, Gainsborough, DN21 2BE, East Midlands",Gainsborough,East Midlands,DN21 2BE,-0.77397,53.39988,Minor Road,86.99
922,"80-84 Victoria Road, Aberdeen, AB11 9DT, Scotland",Aberdeen,Scotland,AB11 9DT,-2.08803,57.1376,Minor Road,77.5
923,"225 Victoria Road, Aberdeen, AB11 9NQ, Scotland",Aberdeen,Scotland,AB11 9NQ,-2.0799,57.13673,Minor Road,141.14
924,"7-13 Provost Watt Drive, Aberdeen, AB12 5BT, Scotland",Aberdeen,Scotland,AB12 5BT,-2.10347,57.1209,Minor Road,54.21
931,"32 Ashgrove Road, Aberdeen, AB25 3AD, Scotland",Aberdeen,Scotland,AB25 3AD,-2.11665,57.15988,Minor Road,120.5
934,"105-107 Cleveden Road, Glasgow, G12 0JU, Scotland",Glasgow,Scotland,G12 0JU,-4.30656,55.88824,Minor Road,59.94
935,"71 Port Dundas Road, Glasgow, G4 0HF, Scotland",Glasgow,Scotland,G4 0HF,-4.25473,55.86805,Minor Road,91.08
964,"19 New Canal, Salisbury, SP1 2AA, South West",Salisbury,South West,SP1 2AA,-1.79523,51.06837,Minor Road,60.01
988,"27 The Broadway, London, SW19 1PS, Greater London",London,Greater London,SW19 1PS,-0.20493,51.42022,Minor Road,27.66
1006,"85 Gloucester Road, London, SW7 4SS, Greater London",London,Greater London,SW7 4SS,-0.18239,51.49439,Minor Road,71.31
1019,"40 Lord Street, Gainsborough, DN21 2DB, East Midlands",Gainsborough,East Midlands,DN21 2DB,-0.77571,53.39981,Minor Road,52.51
1041,"11-13 Zetland Street, Northallerton, DL6 1NA, Yorkshire and the Humber",Northallerton,Yorkshire and the Humber,DL6 1NA,-1.43276,54.33876,Minor Road,138.32
1054,"Market Place, York, YO61 3AD, Yorkshire and the Humber",York,Yorkshire and the Humber,YO61 3AD,-1.19171,54.12162,Minor Road,61.4
1055,"Unit 1, 23 Chapel Street, York, YO61 3AE, Yorkshire and the Humber",York,Yorkshire and the Humber,YO61 3AE,-1.19218,54.12048,Minor Road,216.65
1064,"Huntly House, 142-146 Canongate, Edinburgh, EH8 8DD, Scotland",Edinburgh,Scotland,EH8 8DD,-3.17938,55.95152,Minor Road,169.95
1067,"Unit 9, Weston Court, George Street, Lutterworth, LE17 4EE, East Midlands",Lutterworth,East Midlands,LE17 4EE,-1.20168,52.45636,Minor Road,50.43
1071,"99-101 Eastgate Street, Gloucester, GL1 1PY, South West",Gloucester,South West,GL1 1PY,-2.24134,51.86297,Minor Road,182.44
1128,"52-60 Gresham Street, London, EC2V 7BB, Greater London",London,Greater London,EC2V 7BB,-0.0909,51.51496,Minor Road,36.51
1133,"5 St. Andrew Square, Edinburgh, EH2 2BD, Scotland",Edinburgh,Scotland,EH2 2BD,-3.1929,55.95362,Minor Road,134.1
1134,"111 Old Broad Street, London, EC2N 1AP, Greater London",London,Greater London,EC2N 1AP,-0.0848,51.51518,Minor Road,123.32
1145,"Unit 1a, Principal Place, Worship Street, London, EC2A 2AH, Greater London",London,Greater London,EC2A 2AH,-0.0865,51.52221,Minor Road,152.06
1146,"Unit 1a, Principal Place, Worship Street, London, EC2A 2AH, Greater London",London,Greater London,EC2A 2AH,-0.0865,51.52221,Minor Road,152.06
1152,"50-52 Long Row, Nottingham, NG1 6JB, East Midlands",Nottingham,East Midlands,NG1 6JB,-1.15197,52.9538,Minor Road,127.5
23,"90-100 Market Street, Manchester, M1 1PD, North West",Manchester,North West,M1 1PD,-2.24037,53.48224,Pedestrianised Street,144.37
24,"90-100 Market Street, Manchester, M1 1PD, North West",Manchester,North West,M1 1PD,-2.24037,53.48224,Pedestrianised Street,144.37
38,"59-61 North End, Croydon, CR0 1TG, Greater London",Croydon,Greater London,CR0 1TG,-0.1012,51.37525,Pedestrianised Street,465.98
41,"6 Moulsham Street, Chelmsford, CM2 0HR, East Of England",Chelmsford,East Of England,CM2 0HR,0.47458,51.73122,Pedestrianised Street,162.08
58,"17 Kirkgate, Leeds, LS1 6BY, Yorkshire and the Humber",Leeds,Yorkshire and the Humber,LS1 6BY,-1.54089,53.79708,Pedestrianised Street,72.33
59,"17 Kirkgate, Leeds, LS1 6BY, Yorkshire and the Humber",Leeds,Yorkshire and the Humber,LS1 6BY,-1.54089,53.79708,Pedestrianised Street,72.33
137,"16-17 Sidney Street, Cambridge, CB2 3HG, East Of England",Cambridge,East Of England,CB2 3HG,0.1208,52.2061,Pedestrianised Street,103.96
150,"18 Argyll Street, London, W1F 7TP, Greater London",London,Greater London,W1F 7TP,-0.14131,51.51507,Pedestrianised Street,80.77
151,"37-38 Great Marlborough Street, London, W1F 7JF, Greater London",London,Greater London,W1F 7JF,-0.13943,51.51412,Pedestrianised Street,65.85
165,"40-42 Merchant Street, Bristol, BS1 3EP, South West",Bristol,South West,BS1 3EP,-2.58877,51.45762,Pedestrianised Street,111.51
167,"158-162 Rose Street, Edinburgh, EH2 3JD, Scotland",Edinburgh,Scotland,EH2 3JD,-3.20508,55.95152,Pedestrianised Street,100.96
170,"4a Southgate Street, Gloucester, GL1 2DH, South West",Gloucester,South West,GL1 2DH,-2.24608,51.86526,Pedestrianised Street,61.81
171,"1-3 Eastgate Street, Gloucester, GL1 1NS, South West",Gloucester,South West,GL1 1NS,-2.24554,51.8653,Pedestrianised Street,97.96
176,"12-14 Davey Place, Norwich, NR2 1PQ, East Of England",Norwich,East Of England,NR2 1PQ,1.29425,52.6285,Pedestrianised Street,36.8
177,"1 Brigg Street, Norwich, NR2 1QN, East Of England",Norwich,East Of England,NR2 1QN,1.29348,52.62686,Pedestrianised Street,57.64
178,"1 Orford Place, Norwich, NR1 3RU, East Of England",Norwich,East Of England,NR1 3RU,1.29355,52.6271,Pedestrianised Street,30.2
185,"81 Clarence Street, Kingston Upon Thames, KT1 1RB, Greater London",Kingston Upon Thames,Greater London,KT1 1RB,-0.30224,51.41073,Pedestrianised Street,138.89
187,"115 North End, Croydon, CR0 1TL, Greater London",Croydon,Greater London,CR0 1TL,-0.10182,51.37658,Pedestrianised Street,465.98
188,"133 North End, Croydon, CR0 1TL, Greater London",Croydon,Greater London,CR0 1TL,-0.10207,51.37697,Pedestrianised Street,465.98
189,"27-28 Market Square, Bromley, BR1 1NA, Greater London",Bromley,Greater London,BR1 1NA,0.01525,51.4051,Pedestrianised Street,111.24
206,"Unit 89a, Ridings Shopping Centre, Cathedral Walk, Wakefield, WF1 1DS, Yorkshire and the Humber",Wakefield,Yorkshire and the Humber,WF1 1DS,-1.49739,53.68221,Pedestrianised Street,55.84
208,"11-12 Bear Street, London, WC2H 7AX, Greater London",London,Greater London,WC2H 7AX,-0.12859,51.51086,Pedestrianised Street,76.33
215,"34 Kingly Street, London, W1B 5QH, Greater London",London,Greater London,W1B 5QH,-0.14029,51.5135,Pedestrianised Street,68.28
219,"21-23 King Edward Street, Hull, HU1 3RL, Yorkshire and the Humber",Hull,Yorkshire and the Humber,HU1 3RL,-0.34041,53.74463,Pedestrianised Street,156.2
220,"36 Broad Street, Reading, RG1 2AA, South East",Reading,South East,RG1 2AA,-0.97239,51.4557,Pedestrianised Street,223.73
221,"40 Broad Street, Reading, RG1 2AA, South East",Reading,South East,RG1 2AA,-0.97274,51.45575,Pedestrianised Street,223.73
222,"35 Broad Street, Reading, RG1 2AA, South East",Reading,South East,RG1 2AA,-0.97228,51.4557,Pedestrianised Street,36.6
223,"24 Butcher Row, Salisbury, SP1 1EP, South West",Salisbury,South West,SP1 1EP,-1.79562,51.06883,Pedestrianised Street,108.29
234,"Unit 3, Exchange Arcade, High Street, Nottingham, NG1 2DD, East Midlands",Nottingham,East Midlands,NG1 2DD,-1.14784,52.95355,Pedestrianised Street,130.09
235,"18 Clumber Street, Nottingham, NG1 3GA, East Midlands",Nottingham,East Midlands,NG1 3GA,-1.14742,52.95431,Pedestrianised Street,80.44
236,"Unit g10, The Corner House, Forman Street, Nottingham, NG1 4DB, East Midlands",Nottingham,East Midlands,NG1 4DB,-1.14953,52.95563,Pedestrianised Street,112.66
237,"16 Albert Street, Nottingham, NG1 7DA, East Midlands",Nottingham,East Midlands,NG1 7DA,-1.14903,52.95181,Pedestrianised Street,90.92
242,"39 Commercial Street, Leeds, LS1 6EX, Yorkshire and the Humber",Leeds,Yorkshire and the Humber,LS1 6EX,-1.54344,53.79735,Pedestrianised Street,99.67
249,"Unit 2a, 30 Fargate, Sheffield, S1 2HE, Yorkshire and the Humber",Sheffield,Yorkshire and the Humber,S1 2HE,-1.46937,53.38165,Pedestrianised Street,118.63
250,"Unit 6, Block 6, The Moor, Sheffield, S1 4PF, Yorkshire and the Humber",Sheffield,Yorkshire and the Humber,S1 4PF,-1.47369,53.37571,Pedestrianised Street,117.19
253,"3 Victoria Street, Blackpool, FY1 4RW, North West",Blackpool,North West,FY1 4RW,-3.05461,53.81652,Pedestrianised Street,107.37
266,"11 East Gates, Leicester, LE1 5YA, East Midlands",Leicester,East Midlands,LE1 5YA,-1.13361,52.63593,Pedestrianised Street,41.08
271,"30 Whitechapel, Liverpool, L1 6DZ, North West",Liverpool,North West,L1 6DZ,-2.98525,53.40621,Pedestrianised Street,54.9
272,"70 Lord Street, Liverpool, L2 1TL, North West",Liverpool,North West,L2 1TL,-2.98639,53.40528,Pedestrianised Street,168.9
273,"2 Parker Street, Liverpool, L1 1DN, North West",Liverpool,North West,L1 1DN,-2.98251,53.40505,Pedestrianised Street,43.42
275,"56 Church Street, Liverpool, L1 3AY, North West",Liverpool,North West,L1 3AY,-2.98279,53.40495,Pedestrianised Street,43.42
281,"60-62 Northumberland Street, Newcastle Upon Tyne, NE1 7DF, North East",Newcastle Upon Tyne,North East,NE1 7DF,-1.61256,54.97561,Pedestrianised Street,151.12
284,"35-35a King Street, Manchester, M2 7AT, North West",Manchester,North West,M2 7AT,-2.24533,53.48116,Pedestrianised Street,147.55
287,"82-84 Market Street, Manchester, M1 1PD, North West",Manchester,North West,M1 1PD,-2.24045,53.48227,Pedestrianised Street,144.37
290,"Unit a3, 20 The Hayes, Cardiff, CF10 1AH, Wales",Cardiff,Wales,CF10 1AH,-3.17617,51.47888,Pedestrianised Street,208.74
294,"30-32 Caroline Street, Cardiff, CF10 1FG, Wales",Cardiff,Wales,CF10 1FG,-3.17619,51.478,Pedestrianised Street,153
295,"30-32 Caroline Street, Cardiff, CF10 1FG, Wales",Cardiff,Wales,CF10 1FG,-3.17619,51.478,Pedestrianised Street,153
296,"91 Queen Street, Cardiff, CF10 2BG, Wales",Cardiff,Wales,CF10 2BG,-3.1741,51.48253,Pedestrianised Street,393.77
298,"51 Queen Street, Cardiff, CF10 2AS, Wales",Cardiff,Wales,CF10 2AS,-3.17592,51.48207,Pedestrianised Street,393.77
307,"Thornton's Arcade, 36 Lands Lane, Leeds, LS1 6LB, Yorkshire and the Humber",Leeds,Yorkshire and the Humber,LS1 6LB,-1.54329,53.79868,Pedestrianised Street,161.55
311,"60 High Street, Watford, WD17 2BS, East Of England",Watford,East Of England,WD17 2BS,-0.39698,51.65584,Pedestrianised Street,151.03
316,"95 Broad Street, Reading, RG1 2AP, South East",Reading,South East,RG1 2AP,-0.97327,51.45553,Pedestrianised Street,144.07
329,"16 Castle Street, Kingston Upon Thames, KT1 1SS, Greater London",Kingston Upon Thames,Greater London,KT1 1SS,-0.30179,51.41155,Pedestrianised Street,42.63
346,"31 Bridlesmith Gate, Nottingham, NG1 2GR, East Midlands",Nottingham,East Midlands,NG1 2GR,-1.14703,52.95205,Pedestrianised Street,81.55
366,"146-148 New Street, Birmingham, B2 4NY, West Midlands",Birmingham,West Midlands,B2 4NY,-1.8953,52.47854,Pedestrianised Street,121.6
367,"27 Park Street, Walsall, WS1 1LY, West Midlands",Walsall,West Midlands,WS1 1LY,-1.98304,52.58449,Pedestrianised Street,192.68
368,"Unit 1, 40 New street, Birmingham, B2 4EG, West Midlands",Birmingham,West Midlands,B2 4EG,-1.89844,52.47923,Pedestrianised Street,24.33
369,"7 Mill Lane, Solihull, B91 3AR, West Midlands",Solihull,West Midlands,B91 3AR,-1.77732,52.41305,Pedestrianised Street,62.85
376,"36-37 Cornmarket Street, Oxford, OX1 3EZ, South East",Oxford,South East,OX1 3EZ,-1.25871,51.75366,Pedestrianised Street,84.98
388,"37 West Street, Brighton, BN1 2RE, South East",Brighton,South East,BN1 2RE,-0.14385,50.82315,Pedestrianised Street,80.88
394,"52 East Street, Brighton, BN1 1HL, South East",Brighton,South East,BN1 1HL,-0.13887,50.82123,Pedestrianised Street,64.53
404,"62 Broadmead, Bristol, BS1 3ED, South West",Bristol,South West,BS1 3ED,-2.58966,51.45762,Pedestrianised Street,175.41
415,"24 South Street, Dorchester, DT1 1BY, South West",Dorchester,South West,DT1 1BY,-2.43716,50.71262,Pedestrianised Street,174.18
422,"18 Elvet Bridge, Durham, DH1 3AA, North East",Durham,North East,DH1 3AA,-1.57397,54.77607,Pedestrianised Street,209.55
423,"12 Elvet Bridge, Durham, DH1 3AA, North East",Durham,North East,DH1 3AA,-1.57449,54.7762,Pedestrianised Street,209.55
424,"22 Market Street, Leicester, LE1 6DP, East Midlands",Leicester,East Midlands,LE1 6DP,-1.13345,52.63287,Pedestrianised Street,167.81
425,"30 Market Street, Leicester, LE1 6DP, East Midlands",Leicester,East Midlands,LE1 6DP,-1.13319,52.63264,Pedestrianised Street,167.81
434,"135a North End, Croydon, CR0 1TN, Greater London",Croydon,Greater London,CR0 1TN,-0.10211,51.37723,Pedestrianised Street,465.98
435,"34 Peascod Street, Windsor, SL4 1EA, South East",Windsor,South East,SL4 1EA,-0.61053,51.48123,Pedestrianised Street,276
441,"25 King Street, Manchester, M2 6AF, North West",Manchester,North West,M2 6AF,-2.24637,53.48131,Pedestrianised Street,147.55
445,"7-8 Market Street, Cambridge, CB2 3PA, East Of England",Cambridge,East Of England,CB2 3PA,0.1201,52.20606,Pedestrianised Street,112.56
446,"11-13 Eastgate Street, Chester, CH1 1LG, North West",Chester,North West,CH1 1LG,-2.8906,53.1906,Pedestrianised Street,112.01
452,"3-4 Haymarket, Norwich, NR2 1QD, East Of England",Norwich,East Of England,NR2 1QD,1.2934,52.62768,Pedestrianised Street,43.49
454,"18 Cornmarket Street, Oxford, OX1 3EY, South East",Oxford,South East,OX1 3EY,-1.25815,51.75295,Pedestrianised Street,84.98
455,"Unit 1, 157 High Street, Bromley, BR1 1JD, Greater London",Bromley,Greater London,BR1 1JD,0.01519,51.40498,Pedestrianised Street,276.19
464,"28 Sidney Street, Cambridge, CB2 3HW, East Of England",Cambridge,East Of England,CB2 3HW,0.12043,52.2067,Pedestrianised Street,103.96
469,"22a Sidney Street, Cambridge, CB2 3HG, East Of England",Cambridge,East Of England,CB2 3HG,0.12068,52.20631,Pedestrianised Street,103.96
481,"9-11 Bedford Street, Norwich, NR2 1AR, East Of England",Norwich,East Of England,NR2 1AR,1.29437,52.62981,Pedestrianised Street,73.24
482,"120 Sauchiehall Street, Glasgow, G2 3DH, Scotland",Glasgow,Scotland,G2 3DH,-4.25752,55.86488,Pedestrianised Street,199.91
484,"18 Whitechapel, Liverpool, L1 6DS, North West",Liverpool,North West,L1 6DS,-2.98566,53.406,Pedestrianised Street,56.5
491,"11 Paradise Street, Liverpool, L1 3BL, North West",Liverpool,North West,L1 3BL,-2.98572,53.40491,Pedestrianised Street,76.7
495,"32-34 Carnaby Street, London, W1F 7DN, Greater London",London,Greater London,W1F 7DN,-0.13926,51.51354,Pedestrianised Street,68.28
503,"151-153 High Street, Bromley, BR1 1JD, Greater London",Bromley,Greater London,BR1 1JD,0.01517,51.40487,Pedestrianised Street,276.19
505,"Unit 6-7, Caxton Gate, Corporation Street, Birmingham, B2 4RN, West Midlands",Birmingham,West Midlands,B2 4RN,-1.89742,52.47936,Pedestrianised Street,284.61
506,"1 New street, Birmingham, B2 4LE, West Midlands",Birmingham,West Midlands,B2 4LE,-1.89522,52.47858,Pedestrianised Street,121.6
507,"1-2 Lower Temple Street, Birmingham, B2 4JD, West Midlands",Birmingham,West Midlands,B2 4JD,-1.8996,52.47902,Pedestrianised Street,67.18
509,"Unit 2, 34-36 Clumber Street, Nottingham, NG1 3GB, East Midlands",Nottingham,East Midlands,NG1 3GB,-1.14759,52.95463,Pedestrianised Street,16.97
510,"6 Clumber Street, Nottingham, NG1 3GA, East Midlands",Nottingham,East Midlands,NG1 3GA,-1.14733,52.95391,Pedestrianised Street,80.44
511,"12 Exchange Walk, Nottingham, NG1 2NX, East Midlands",Nottingham,East Midlands,NG1 2NX,-1.14899,52.95247,Pedestrianised Street,36.26
513,"18 Market Street, Manchester, M1 1PT, North West",Manchester,North West,M1 1PT,-2.24203,53.48276,Pedestrianised Street,145.58
514,"Unit 37, Manchester Arndale, Market Street, Manchester, M1 1WR, North West",Manchester,North West,M1 1WR,-2.2419,53.48273,Pedestrianised Street,145.58
517,"Unit 2, 51-59 Kirkgate, Bradford, BD1 1PZ, Yorkshire and the Humber",Bradford,Yorkshire and the Humber,BD1 1PZ,-1.75408,53.79459,Pedestrianised Street,106.69
528,"24 Market Street, Cambridge, CB2 3PA, East Of England",Cambridge,East Of England,CB2 3PA,0.12005,52.20595,Pedestrianised Street,112.56
529,"Unit 5, 53-57 Queen Street, Cardiff, CF10 2AS, Wales",Cardiff,Wales,CF10 2AS,-3.17562,51.4821,Pedestrianised Street,393.77
536,"Unit MSU1, The Core Shopping Centre, Lands Lane, Leeds, LS1 6JE, Yorkshire and the Humber",Leeds,Yorkshire and the Humber,LS1 6JE,-1.54366,53.79833,Pedestrianised Street,161.55
537,"20 Albion Place, Leeds, LS1 6JS, Yorkshire and the Humber",Leeds,Yorkshire and the Humber,LS1 6JS,-1.54266,53.79763,Pedestrianised Street,91.07
538,"49-51 Vicar Lane, Leeds, LS1 6DS, Yorkshire and the Humber",Leeds,Yorkshire and the Humber,LS1 6DS,-1.54048,53.79758,Pedestrianised Street,59.9
540,"32 School Road, Sale, M33 7XF, North West",Sale,North West,M33 7XF,-2.32099,53.42498,Pedestrianised Street,80.81
542,"26 Castle Street, Edinburgh, EH2 3HT, Scotland",Edinburgh,Scotland,EH2 3HT,-3.20334,55.9519,Pedestrianised Street,45.6
543,"113 Buchanan Street, Glasgow, G1 3HF, Scotland",Glasgow,Scotland,G1 3HF,-4.25421,55.8604,Pedestrianised Street,18.64
545,"30 Leicester Square, London, WC2H 7JZ, Greater London",London,Greater London,WC2H 7JZ,-0.1297,51.51025,Pedestrianised Street,35.64
553,"54-58 Northumberland Street, Newcastle Upon Tyne, NE1 7DF, North East",Newcastle Upon Tyne,North East,NE1 7DF,-1.61241,54.97553,Pedestrianised Street,151.12
554,"10 Northumberland Street, Newcastle Upon Tyne, NE1 7DE, North East",Newcastle Upon Tyne,North East,NE1 7DE,-1.6119,54.97453,Pedestrianised Street,63.05
556,"3 Chain Street, Reading, RG1 2HX, South East",Reading,South East,RG1 2HX,-0.97312,51.45518,Pedestrianised Street,144.07
557,"52 Broad Street, Reading, RG1 2AA, South East",Reading,South East,RG1 2AA,-0.97391,51.45572,Pedestrianised Street,223.73
558,"85 Broad Street, Reading, RG1 2AP, South East",Reading,South East,RG1 2AP,-0.97419,51.45554,Pedestrianised Street,223.73
560,"25 Eastgate Street, Chester, CH1 1LG, North West",Chester,North West,CH1 1LG,-2.89021,53.19067,Pedestrianised Street,112.01
561,"Unit 1, Sauchiehall Centre, 179a Sauchiehall Street, Glasgow, G2 3ER, Scotland",Glasgow,Scotland,G2 3ER,-4.25922,55.86492,Pedestrianised Street,199.91
562,"Unit b, 229-249 Buchanan Street, Glasgow, G1 2NG, Scotland",Glasgow,Scotland,G1 2NG,-4.25312,55.86393,Pedestrianised Street,107.85
563,"St. Enoch Centre, 87-91 Argyle Street, Glasgow, G2 8BJ, Scotland",Glasgow,Scotland,G2 8BJ,-4.25278,55.85779,Pedestrianised Street,85.37
565,"Unit 2a, Grand Buildings, Jameson Street, Hull, HU1 3JX, Yorkshire and the Humber",Hull,Yorkshire and the Humber,HU1 3JX,-0.34288,53.74471,Pedestrianised Street,38.94
566,"61-63 Jameson Street, Hull, HU1 3JF, Yorkshire and the Humber",Hull,Yorkshire and the Humber,HU1 3JF,-0.34235,53.74462,Pedestrianised Street,138.6
568,"20 Church Street, Kingston Upon Thames, KT1 1RJ, Greater London",Kingston Upon Thames,Greater London,KT1 1RJ,-0.30496,51.41059,Pedestrianised Street,48.17
570,"46-48 High Street, Leicester, LE1 5YN, East Midlands",Leicester,East Midlands,LE1 5YN,-1.136,52.63557,Pedestrianised Street,153.34
599,"257 High Street, London, E17 7BH, Greater London",London,Greater London,E17 7BH,-0.0212,51.58467,Pedestrianised Street,142.38
600,"6-8 Fouberts Place, London, W1F 7PD, Greater London",London,Greater London,W1F 7PD,-0.14002,51.51333,Pedestrianised Street,68.28
602,"2-8 London Street, Norwich, NR2 1LH, East Of England",Norwich,East Of England,NR2 1LH,1.2936,52.62901,Pedestrianised Street,46.17
605,"7 Bold Street, Liverpool, L1 4DN, North West",Liverpool,North West,L1 4DN,-2.98011,53.40403,Pedestrianised Street,223.34
609,"16 Victoria Street, Blackpool, FY1 4RW, North West",Blackpool,North West,FY1 4RW,-3.05434,53.8166,Pedestrianised Street,107.37
610,"56-58 Church Street, Blackpool, FY1 1HP, North West",Blackpool,North West,FY1 1HP,-3.05307,53.81757,Pedestrianised Street,79.12
611,"67-73 School Road, Sale, M33 7YF, North West",Sale,North West,M33 7YF,-2.32411,53.42542,Pedestrianised Street,41.39
613,"2b Maidenhead Street, Hertford, SG14 1DR, East Of England",Hertford,East Of England,SG14 1DR,-0.07792,51.79665,Pedestrianised Street,112.97
614,"31 Maidenhead Street, Hertford, SG14 1DW, East Of England",Hertford,East Of England,SG14 1DW,-0.07898,51.79633,Pedestrianised Street,112.97
618,"24-26 Bank Hey Street, Blackpool, FY1 4RS, North West",Blackpool,North West,FY1 4RS,-3.0548,53.81655,Pedestrianised Street,97.67
621,"33 Butcher Row, Salisbury, SP1 1EP, South West",Salisbury,South West,SP1 1EP,-1.79577,51.06863,Pedestrianised Street,108.29
623,"22-24 Eastgate Street, Chester, CH1 1LE, North West",Chester,North West,CH1 1LE,-2.89025,53.19044,Pedestrianised Street,112.01
624,"17 King Street, Manchester, M2 6AW, North West",Manchester,North West,M2 6AW,-2.24684,53.48139,Pedestrianised Street,7.64
632,"40 South Street, Romford, RM1 1RB, Greater London",Romford,Greater London,RM1 1RB,0.18122,51.57735,Pedestrianised Street,159.32
650,"55-56 East Street, Brighton, BN1 1HN, South East",Brighton,South East,BN1 1HN,-0.13903,50.82104,Pedestrianised Street,64.53
651,"3 Clumber Street, Nottingham, NG1 3ED, East Midlands",Nottingham,East Midlands,NG1 3ED,-1.14758,52.95393,Pedestrianised Street,80.44
652,"17 Bridlesmith Gate, Nottingham, NG1 2GR, East Midlands",Nottingham,East Midlands,NG1 2GR,-1.14712,52.95249,Pedestrianised Street,81.55
653,"21-23 Church Street, Liverpool, L1 1DA, North West",Liverpool,North West,L1 1DA,-2.98455,53.40534,Pedestrianised Street,54.09
656,"7 King Edward Street, Leeds, LS1 6AX, Yorkshire and the Humber",Leeds,Yorkshire and the Humber,LS1 6AX,-1.54183,53.79776,Pedestrianised Street,69.62
669,"15-16 Market Place, Kingston Upon Thames, KT1 1JP, Greater London",Kingston Upon Thames,Greater London,KT1 1JP,-0.30656,51.41001,Pedestrianised Street,59.07
682,"7 Shepherd Street, London, W1J 7HR, Greater London",London,Greater London,W1J 7HR,-0.14688,51.50615,Pedestrianised Street,26.78
707,"35 Great Marlborough Street, London, W1F 7JE, Greater London",London,Greater London,W1F 7JE,-0.13944,51.51407,Pedestrianised Street,65.85
729,"6-8 Brigg Street, Norwich, NR2 1QN, East Of England",Norwich,East Of England,NR2 1QN,1.29325,52.6268,Pedestrianised Street,57.64
730,"32 London Street, Norwich, NR2 1LD, East Of England",Norwich,East Of England,NR2 1LD,1.29515,52.6292,Pedestrianised Street,92.45
731,"28-30 Castle Street, Kingston Upon Thames, KT1 1SS, Greater London",Kingston Upon Thames,Greater London,KT1 1SS,-0.30194,51.41191,Pedestrianised Street,42.63
771,"5 Moulsham Street, Chelmsford, CM2 0HR, East Of England",Chelmsford,East Of England,CM2 0HR,0.47464,51.73127,Pedestrianised Street,162.08
776,"18 South Street, Dorchester, DT1 1BS, South West",Dorchester,South West,DT1 1BS,-2.43697,50.7133,Pedestrianised Street,174.18
777,"15 Parliament Street, York, YO1 8SG, Yorkshire and the Humber",York,Yorkshire and the Humber,YO1 8SG,-1.08167,53.9591,Pedestrianised Street,56.73
795,"46-48 King Street, Maidenhead, SL6 1HJ, South East",Maidenhead,South East,SL6 1HJ,-0.72244,51.52071,Pedestrianised Street,119.98
796,"45-46 Cornmarket Street, Oxford, OX1 3HA, South East",Oxford,South East,OX1 3HA,-1.25855,51.75326,Pedestrianised Street,84.98
818,"10 Chapel Street, Peterhead, AB42 1TL, Scotland",Peterhead,Scotland,AB42 1TL,-1.77834,57.50533,Pedestrianised Street,93.73
821,"10 Thistle Street, Peterhead, AB42 1TD, Scotland",Peterhead,Scotland,AB42 1TD,-1.77995,57.50551,Pedestrianised Street,49.03
822,"17 Broad Street, Peterhead, AB42 1HY, Scotland",Peterhead,Scotland,AB42 1HY,-1.77747,57.50522,Pedestrianised Street,68.37
823,"34 Marischal Street, Peterhead, AB42 1HS, Scotland",Peterhead,Scotland,AB42 1HS,-1.77879,57.50522,Pedestrianised Street,91.43
837,"20-21 Leicester Square, London, WC2H 7JX, Greater London",London,Greater London,WC2H 7JX,-0.12949,51.51087,Pedestrianised Street,76.33
841,"Hanover Buildings, 66 Rose Street, Edinburgh, EH2 2NN, Scotland",Edinburgh,Scotland,EH2 2NN,-3.19855,55.95249,Pedestrianised Street,157.4
842,"235 High Street, Edinburgh, EH1 1PE, Scotland",Edinburgh,Scotland,EH1 1PE,-3.18922,55.95,Pedestrianised Street,97.24
844,"130 High Street, Edinburgh, EH1 1QS, Scotland",Edinburgh,Scotland,EH1 1QS,-3.18843,55.94999,Pedestrianised Street,97.24
854,"19-20 Irving Street, London, WC2H 7RR, Greater London",London,Greater London,WC2H 7RR,-0.12933,51.50989,Pedestrianised Street,88.15
856,"Unit 1, 3-7 Coney Street, York, YO1 9QL, Yorkshire and the Humber",York,Yorkshire and the Humber,YO1 9QL,-1.08473,53.95994,Pedestrianised Street,129.62
882,"Great Maze Pond, St. Thomas Street, London, SE1 9RT, Greater London",London,Greater London,SE1 9RT,-0.08719,51.50414,Pedestrianised Street,39.05
884,"17 Queen Victoria Street, Reading, RG1 1SY, South East",Reading,South East,RG1 1SY,-0.97221,51.4562,Pedestrianised Street,112.27
885,"30a Chain Street, Reading, RG1 2HX, South East",Reading,South East,RG1 2HX,-0.97305,51.4553,Pedestrianised Street,144.07
893,"1 Grassmarket, Edinburgh, EH1 2HY, Scotland",Edinburgh,Scotland,EH1 2HY,-3.19801,55.94716,Pedestrianised Street,236.46
896,"Unit 6, 76 Rose Street, Edinburgh, EH2 2NN, Scotland",Edinburgh,Scotland,EH2 2NN,-3.19857,55.95251,Pedestrianised Street,76.36
898,"4 Castle Street, Edinburgh, EH2 3DW, Scotland",Edinburgh,Scotland,EH2 3DW,-3.203,55.95132,Pedestrianised Street,66.87
903,"89 Rose Street, Edinburgh, EH2 3DT, Scotland",Edinburgh,Scotland,EH2 3DT,-3.20088,55.9522,Pedestrianised Street,157.78
937,"25 New Street, Birmingham, B2 4RQ, West Midlands",Birmingham,West Midlands,B2 4RQ,-1.89762,52.47903,Pedestrianised Street,284.61
938,"35 Broadmead, Bristol, BS1 3EU, South West",Bristol,South West,BS1 3EU,-2.58869,51.45773,Pedestrianised Street,111.51
939,"107-109 High Street, Bromley, BR1 1JQ, Greater London",Bromley,Greater London,BR1 1JQ,0.01529,51.40356,Pedestrianised Street,276.19
944,"233 High Street, Exeter, EX4 3NE, South West",Exeter,South West,EX4 3NE,-3.53012,50.72415,Pedestrianised Street,295.69
945,"166 Buchanan Street, Glasgow, G1 2LW, Scotland",Glasgow,Scotland,G1 2LW,-4.25334,55.86238,Pedestrianised Street,34.91
946,"9-11 Eastgate Street, Gloucester, GL1 1NS, South West",Gloucester,South West,GL1 1NS,-2.24543,51.86523,Pedestrianised Street,214.88
948,"79 Clarence Street, Kingston Upon Thames, KT1 1RB, Greater London",Kingston Upon Thames,Greater London,KT1 1RB,-0.30243,51.41071,Pedestrianised Street,138.89
951,"25 Church Street, Liverpool, L1 1DA, North West",Liverpool,North West,L1 1DA,-2.98437,53.40532,Pedestrianised Street,54.09
958,"12-14 Brigg Street, Norwich, NR2 1QN, East Of England",Norwich,East Of England,NR2 1QN,1.29312,52.62669,Pedestrianised Street,57.64
959,"21 Long Row, Nottingham, NG1 2DH, East Midlands",Nottingham,East Midlands,NG1 2DH,-1.1494,52.95374,Pedestrianised Street,130.09
961,"50 Cornmarket Street, Oxford, OX1 3HA, South East",Oxford,South East,OX1 3HA,-1.25839,51.75297,Pedestrianised Street,84.98
963,"104-105 Broad Street, Reading, RG1 2AZ, South East",Reading,South East,RG1 2AZ,-0.97241,51.45559,Pedestrianised Street,223.73
966,"101 High Street, Solihull, B91 3SW, West Midlands",Solihull,West Midlands,B91 3SW,-1.77759,52.41286,Pedestrianised Street,85.67
969,"8 Queen Street, Cardiff, CF10 2BU, Wales",Cardiff,Wales,CF10 2BU,-3.17869,51.48154,Pedestrianised Street,393.77
971,"17 King Edward Street, Hull, HU1 3RL, Yorkshire and the Humber",Hull,Yorkshire and the Humber,HU1 3RL,-0.34023,53.74451,Pedestrianised Street,156.2
973,"97 Lord Street, Liverpool, L2 6PG, North West",Liverpool,North West,L2 6PG,-2.98603,53.40542,Pedestrianised Street,168.9
974,"30 Market Street, Manchester, M1 1PW, North West",Manchester,North West,M1 1PW,-2.24318,53.48284,Pedestrianised Street,145.58
976,"3-5 Murray Place, Stirling, FK8 1DQ, Scotland",Stirling,Scotland,FK8 1DQ,-3.9368,56.11779,Pedestrianised Street,124.64
977,"51 East Street, Brighton, BN1 1HN, South East",Brighton,South East,BN1 1HN,-0.13882,50.82127,Pedestrianised Street,64.53
978,"24 Petty Cury, Cambridge, CB2 3NB, East Of England",Cambridge,East Of England,CB2 3NB,0.12104,52.20537,Pedestrianised Street,126.28
979,"14 Market Place, Durham, DH1 3NE, North East",Durham,North East,DH1 3NE,-1.57586,54.7767,Pedestrianised Street,175.55
980,"95 Buchanan Street, Glasgow, G1 3HF, Scotland",Glasgow,Scotland,G1 3HF,-4.25433,55.86005,Pedestrianised Street,22.72
981,"38 Lands Lane, Leeds, LS1 6LD, Yorkshire and the Humber",Leeds,Yorkshire and the Humber,LS1 6LD,-1.54319,53.79911,Pedestrianised Street,161.55
991,"20 St. Ann's Road, Harrow, HA1 1LG, Greater London",Harrow,Greater London,HA1 1LG,-0.33442,51.58147,Pedestrianised Street,91.95
1003,"17-21 Leicester Square, London, WC2H 7LE, Greater London",London,Greater London,WC2H 7LE,-0.12966,51.51088,Pedestrianised Street,15.64
1018,"46 Westgate Street, Gloucester, GL1 2NF, South West",Gloucester,South West,GL1 2NF,-2.24748,51.86634,Pedestrianised Street,132.12
1020,"21 Silver Street, Gainsborough, DN21 2DT, East Midlands",Gainsborough,East Midlands,DN21 2DT,-0.77674,53.39859,Pedestrianised Street,123.76
1060,"12 Thistle Street, Peterhead, AB42 1TD, Scotland",Peterhead,Scotland,AB42 1TD,-1.77999,57.50555,Pedestrianised Street,49.03
1065,"154 High Street, Edinburgh, EH1 1QS, Scotland",Edinburgh,Scotland,EH1 1QS,-3.18899,55.95,Pedestrianised Street,97.24
1088,"23a Eastgate Street, Gloucester, GL1 1PU, South West",Gloucester,South West,GL1 1PU,-2.24472,51.86462,Pedestrianised Street,214.88
1148,"17 Westgate Street, Gloucester, GL1 2NW, South West",Gloucester,South West,GL1 2NW,-2.24654,51.86567,Pedestrianised Street,21.27
1149,"8a Eastgate Street, Gloucester, GL1 1PA, South West",Gloucester,South West,GL1 1PA,-2.24535,51.86493,Pedestrianised Street,214.88
1151,"4 Long Row, Nottingham, NG1 2DB, East Midlands",Nottingham,East Midlands,NG1 2DB,-1.1483,52.9538,Pedestrianised Street,130.09
76,"Unit 11, Manchester Fort Shopping Park, Cheetham Hill Road, Manchester, M8 8EP, North West",Manchester,North West,M8 8EP,-2.2339,53.4971,Private Road - Publicly Accessible,141.81
77,"Unit 11, Manchester Fort Shopping Park, Cheetham Hill Road, Manchester, M8 8EP, North West",Manchester,North West,M8 8EP,-2.2339,53.4971,Private Road - Publicly Accessible,141.81
286,"Unit 35, Manchester Fort Shopping Park, Cheetham Hill Road, Manchester, M8 8EP, North West",Manchester,North West,M8 8EP,-2.23661,53.49809,Private Road - Publicly Accessible,183.48
594,"Unit B13, The Balcony, Waterloo Station, London, SE1 7LY, Greater London",London,Greater London,SE1 7LY,-0.11236,51.50349,Private Road - Publicly Accessible,316.67
1049,"Bedale Hall, North End, Bedale, DL8 1AA, Yorkshire and the Humber",Bedale,Yorkshire and the Humber,DL8 1AA,-1.5935,54.28967,Private Road - Publicly Accessible,14.53
5,"Unit 35, Hammersmith Broadway Shopping Centre, Hammersmith Broadway, London, W6 9YD, Greater London",London,Greater London,W6 9YD,-0.22426,51.49273,Private Road - Restricted Access,46.53
6,"Unit 11, Hammersmith Broadway Shopping Centre, Hammersmith Broadway, London, W6 9YD, Greater London",London,Greater London,W6 9YD,-0.22356,51.49215,Private Road - Restricted Access,109.47
7,"Unit 13-16, Hammersmith Broadway Shopping Centre, Hammersmith Broadway, London, W6 9YD, Greater London",London,Greater London,W6 9YD,-0.22361,51.49171,Private Road - Restricted Access,36.43
18,"Unit 2, The Oracle Shopping Centre, Minster Street, Reading, RG1 2AG, South East",Reading,South East,RG1 2AG,-0.97052,51.45281,Private Road - Restricted Access,111.44
52,"Unit 22a, Hammersmith Broadway Shopping Centre, Hammersmith Broadway, London, W6 9YD, Greater London",London,Greater London,W6 9YD,-0.22409,51.49185,Private Road - Restricted Access,112.19
53,"Unit 22a, Hammersmith Broadway Shopping Centre, Hammersmith Broadway, London, W6 9YD, Greater London",London,Greater London,W6 9YD,-0.22409,51.49185,Private Road - Restricted Access,112.19
61,"Unit 9, Hammersmith Broadway Shopping Centre, Hammersmith Broadway, London, W6 9YD, Greater London",London,Greater London,W6 9YD,-0.22374,51.49226,Private Road - Restricted Access,109.47
62,"Unit 9, Hammersmith Broadway Shopping Centre, Hammersmith Broadway, London, W6 9YD, Greater London",London,Greater London,W6 9YD,-0.22374,51.49226,Private Road - Restricted Access,109.47
78,"Unit 3, Hammersmith Broadway Shopping Centre, Hammersmith Broadway, London, W6 9DL, Greater London",London,Greater London,W6 9DL,-0.22395,51.49255,Private Road - Restricted Access,46.53
107,"25 Lansdowne Row, London, W1J 8QN, Greater London",London,Greater London,W1J 8QN,-0.14421,51.50862,Private Road - Restricted Access,91.23
225,"45 Blue Boar Row, Salisbury, SP1 1DA, South West",Salisbury,South West,SP1 1DA,-1.79505,51.06972,Private Road - Restricted Access,60.33
230,"30-32 The Broadway, Plymouth, PL9 7AX, South West",Plymouth,South West,PL9 7AX,-4.09049,50.36005,Private Road - Restricted Access,170.5
241,"50a Albion Street, Leeds, LS1 6AD, Yorkshire and the Humber",Leeds,Yorkshire and the Humber,LS1 6AD,-1.54504,53.79763,Private Road - Restricted Access,57.91
257,"20 Royal Exchange Square, Glasgow, G1 3AB, Scotland",Glasgow,Scotland,G1 3AB,-4.25269,55.86048,Private Road - Restricted Access,206.15
306,"36-38 Commercial Street, Leeds, LS1 6EX, Yorkshire and the Humber",Leeds,Yorkshire and the Humber,LS1 6EX,-1.54369,53.79736,Private Road - Restricted Access,26.92
343,"5a Royal Exchange Square, Glasgow, G1 3AH, Scotland",Glasgow,Scotland,G1 3AH,-4.25245,55.85991,Private Road - Restricted Access,206.15
357,"13 New Quebec Street, London, W1H 7RR, Greater London",London,Greater London,W1H 7RR,-0.15834,51.51563,Private Road - Restricted Access,10.23
395,"Unit 49a, Brighton Marina, Waterfront, Brighton, BN2 5WA, South East",Brighton,South East,BN2 5WA,-0.10654,50.81256,Private Road - Restricted Access,149.06
592,"11 New George Street, Plymouth, PL1 1QZ, South West",Plymouth,South West,PL1 1QZ,-4.13958,50.37138,Private Road - Restricted Access,76.3
661,"Charter Quay, 3 Jerome Place, Kingston Upon Thames, KT1 1HT, Greater London",Kingston Upon Thames,Greater London,KT1 1HT,-0.30793,51.40954,Private Road - Restricted Access,201.89
678,"65 Cannon Street, London, EC4N 5AA, Greater London",London,Greater London,EC4N 5AA,-0.09278,51.51224,Private Road - Restricted Access,59.22
702,"Unit 26a, Hay's Galleria, Tooley Street, London, SE1 2HD, Greater London",London,Greater London,SE1 2HD,-0.0843,51.50571,Private Road - Restricted Access,48.31
745,"Butlers Wharf, 34 Shad Thames, London, SE1 2YG, Greater London",London,Greater London,SE1 2YG,-0.07449,51.5038,Private Road - Restricted Access,140.07
760,"60 Cornwall Street, Plymouth, PL1 1LR, South West",Plymouth,South West,PL1 1LR,-4.14352,50.37239,Private Road - Restricted Access,25.26
786,"Southside Wandsworth, 4 Garratt Lane, London, SW18 4TF, Greater London",London,Greater London,SW18 4TF,-0.19297,51.45524,Private Road - Restricted Access,30.13
919,"59-61 Borough High Street, London, SE1 1NE, Greater London",London,Greater London,SE1 1NE,-0.09,51.50466,Private Road - Restricted Access,114.19
920,"43 St. Swithin Street, Aberdeen, AB10 6XL, Scotland",Aberdeen,Scotland,AB10 6XL,-2.12492,57.14013,Private Road - Restricted Access,49.24
950,"34-35 Commercial Street, Leeds, LS1 6EX, Yorkshire and the Humber",Leeds,Yorkshire and the Humber,LS1 6EX,-1.54394,53.79732,Private Road - Restricted Access,26.92
1035,"Unit 3, Leeds Railway Station, Aire Street, Leeds, LS1 4DY, Yorkshire and the Humber",Leeds,Yorkshire and the Humber,LS1 4DY,-1.54741,53.79531,Private Road - Restricted Access,92.67
1038,"301 High Street, Northallerton, DL7 8EA, Yorkshire and the Humber",Northallerton,Yorkshire and the Humber,DL7 8EA,-1.43841,54.34385,Private Road - Restricted Access,216.15
1059,"46 North Hill, Plymouth, PL4 8EU, South West",Plymouth,South West,PL4 8EU,-4.13611,50.37694,Private Road - Restricted Access,96.3
1109,"Unit kiosk 4, Highcross Shopping Centre, Shires Lane, Leicester, LE1 4SP, East Midlands",Leicester,East Midlands,LE1 4SP,-1.13739,52.63701,Private Road - Restricted Access,186.35
1123,"Regent's Place, Hampstead Road, London, NW1 2PY, Greater London",London,Greater London,NW1 2PY,-0.14034,51.52539,Private Road - Restricted Access,88.35